<?xml version="1.0" encoding="utf-8"?>
<gpx xmlns="http://www.topografix.com/GPX/1/1" xmlns:gpxx="http://www.garmin.com/xmlschemas/GpxExtensions/v3" xmlns:gpxtpx="http://www.garmin.com/xmlschemas/TrackPointExtension/v1" creator="doogal.co.uk" version="1.1" xmlns:xsi="http://www.w3.org/2001/XMLSchema-instance" xsi:schemaLocation="http://www.topografix.com/GPX/1/1 http://www.topografix.com/GPX/1/1/gpx.xsd http://www.garmin.com/xmlschemas/GpxExtensions/v3 http://www.garmin.com/xmlschemas/GpxExtensionsv3.xsd http://www.garmin.com/xmlschemas/TrackPointExtension/v1 http://www.garmin.com/xmlschemas/TrackPointExtensionv1.xsd">
  <metadata>
    <link href="https://www.doogal.co.uk">
      <text>doogal.co.uk</text>
    </link>
    <time>2026-03-19T10:08:49.2216910Z</time>
  </metadata>
  <trk>
    <name>Trondheim-stafetten E4 Rosenborg 2900m</name>
    <trkseg>
      <trkpt lat="63.438246" lon="10.448842">
        <ele>31.4</ele>
      </trkpt>
      <trkpt lat="63.438054" lon="10.448782">
        <ele>32.1</ele>
      </trkpt>
      <trkpt lat="63.438014" lon="10.448757">
        <ele>32.3</ele>
      </trkpt>
      <trkpt lat="63.437935" lon="10.448699">
        <ele>32.6</ele>
      </trkpt>
      <trkpt lat="63.437917" lon="10.448687">
        <ele>32.6</ele>
      </trkpt>
      <trkpt lat="63.437802" lon="10.448582">
        <ele>33.2</ele>
      </trkpt>
      <trkpt lat="63.437801" lon="10.448579">
        <ele>33.2</ele>
      </trkpt>
      <trkpt lat="63.437791" lon="10.448550">
        <ele>33.3</ele>
      </trkpt>
      <trkpt lat="63.437792" lon="10.448550">
        <ele>33.3</ele>
      </trkpt>
      <trkpt lat="63.437791" lon="10.448548">
        <ele>33.3</ele>
      </trkpt>
      <trkpt lat="63.437792" lon="10.448548">
        <ele>33.3</ele>
      </trkpt>
      <trkpt lat="63.437792" lon="10.448548">
        <ele>33.3</ele>
      </trkpt>
      <trkpt lat="63.437795" lon="10.448548">
        <ele>33.3</ele>
      </trkpt>
      <trkpt lat="63.437796" lon="10.448547">
        <ele>33.3</ele>
      </trkpt>
      <trkpt lat="63.437796" lon="10.448546">
        <ele>33.3</ele>
      </trkpt>
      <trkpt lat="63.437796" lon="10.448546">
        <ele>33.3</ele>
      </trkpt>
      <trkpt lat="63.437784" lon="10.448439">
        <ele>33.4</ele>
      </trkpt>
      <trkpt lat="63.437770" lon="10.448387">
        <ele>33.5</ele>
      </trkpt>
      <trkpt lat="63.437656" lon="10.448003">
        <ele>34.3</ele>
      </trkpt>
      <trkpt lat="63.437647" lon="10.447942">
        <ele>34.5</ele>
      </trkpt>
      <trkpt lat="63.437622" lon="10.447599">
        <ele>34.3</ele>
      </trkpt>
      <trkpt lat="63.437609" lon="10.447415">
        <ele>34.2</ele>
      </trkpt>
      <trkpt lat="63.437607" lon="10.447158">
        <ele>34</ele>
      </trkpt>
      <trkpt lat="63.437625" lon="10.446788">
        <ele>33.8</ele>
      </trkpt>
      <trkpt lat="63.437649" lon="10.446438">
        <ele>33.4</ele>
      </trkpt>
      <trkpt lat="63.437668" lon="10.446256">
        <ele>33.2</ele>
      </trkpt>
      <trkpt lat="63.437684" lon="10.445849">
        <ele>32.7</ele>
      </trkpt>
      <trkpt lat="63.437712" lon="10.445408">
        <ele>32.2</ele>
      </trkpt>
      <trkpt lat="63.437719" lon="10.445297">
        <ele>32.1</ele>
      </trkpt>
      <trkpt lat="63.437750" lon="10.444866">
        <ele>31.5</ele>
      </trkpt>
      <trkpt lat="63.437785" lon="10.444426">
        <ele>30.9</ele>
      </trkpt>
      <trkpt lat="63.437794" lon="10.444314">
        <ele>30.7</ele>
      </trkpt>
      <trkpt lat="63.437817" lon="10.443874">
        <ele>30</ele>
      </trkpt>
      <trkpt lat="63.437839" lon="10.443559">
        <ele>29.3</ele>
      </trkpt>
      <trkpt lat="63.437846" lon="10.443358">
        <ele>28.8</ele>
      </trkpt>
      <trkpt lat="63.437855" lon="10.443115">
        <ele>28.3</ele>
      </trkpt>
      <trkpt lat="63.437837" lon="10.443027">
        <ele>28.4</ele>
      </trkpt>
      <trkpt lat="63.437819" lon="10.443001">
        <ele>28.5</ele>
      </trkpt>
      <trkpt lat="63.437737" lon="10.442907">
        <ele>28.8</ele>
      </trkpt>
      <trkpt lat="63.437735" lon="10.442851">
        <ele>28.7</ele>
      </trkpt>
      <trkpt lat="63.437777" lon="10.442407">
        <ele>27.7</ele>
      </trkpt>
      <trkpt lat="63.437790" lon="10.441956">
        <ele>26.7</ele>
      </trkpt>
      <trkpt lat="63.437784" lon="10.441753">
        <ele>26.3</ele>
      </trkpt>
      <trkpt lat="63.437760" lon="10.441307">
        <ele>25.3</ele>
      </trkpt>
      <trkpt lat="63.437730" lon="10.440971">
        <ele>24.3</ele>
      </trkpt>
      <trkpt lat="63.437681" lon="10.440539">
        <ele>23</ele>
      </trkpt>
      <trkpt lat="63.437618" lon="10.440145">
        <ele>22.4</ele>
      </trkpt>
      <trkpt lat="63.437598" lon="10.440053">
        <ele>22.6</ele>
      </trkpt>
      <trkpt lat="63.437520" lon="10.439677">
        <ele>22.6</ele>
      </trkpt>
      <trkpt lat="63.437420" lon="10.439236">
        <ele>22.2</ele>
      </trkpt>
      <trkpt lat="63.437373" lon="10.439085">
        <ele>22.1</ele>
      </trkpt>
      <trkpt lat="63.437291" lon="10.438703">
        <ele>22</ele>
      </trkpt>
      <trkpt lat="63.437234" lon="10.438402">
        <ele>22</ele>
      </trkpt>
      <trkpt lat="63.437206" lon="10.438180">
        <ele>21.9</ele>
      </trkpt>
      <trkpt lat="63.437191" lon="10.437968">
        <ele>22</ele>
      </trkpt>
      <trkpt lat="63.437172" lon="10.437843">
        <ele>22</ele>
      </trkpt>
      <trkpt lat="63.437142" lon="10.437743">
        <ele>22</ele>
      </trkpt>
      <trkpt lat="63.437135" lon="10.437739">
        <ele>22</ele>
      </trkpt>
      <trkpt lat="63.437124" lon="10.437722">
        <ele>21.9</ele>
      </trkpt>
      <trkpt lat="63.437096" lon="10.437705">
        <ele>21.9</ele>
      </trkpt>
      <trkpt lat="63.437059" lon="10.437718">
        <ele>21.9</ele>
      </trkpt>
      <trkpt lat="63.437031" lon="10.437695">
        <ele>22.2</ele>
      </trkpt>
      <trkpt lat="63.436977" lon="10.437591">
        <ele>22.7</ele>
      </trkpt>
      <trkpt lat="63.436873" lon="10.437344">
        <ele>24</ele>
      </trkpt>
      <trkpt lat="63.436773" lon="10.437141">
        <ele>25.1</ele>
      </trkpt>
      <trkpt lat="63.436727" lon="10.437051">
        <ele>25.5</ele>
      </trkpt>
      <trkpt lat="63.436672" lon="10.436936">
        <ele>26</ele>
      </trkpt>
      <trkpt lat="63.436645" lon="10.436872">
        <ele>26.2</ele>
      </trkpt>
      <trkpt lat="63.436630" lon="10.436842">
        <ele>26.3</ele>
      </trkpt>
      <trkpt lat="63.436604" lon="10.436774">
        <ele>26.5</ele>
      </trkpt>
      <trkpt lat="63.436551" lon="10.436623">
        <ele>26.8</ele>
      </trkpt>
      <trkpt lat="63.436525" lon="10.436543">
        <ele>26.9</ele>
      </trkpt>
      <trkpt lat="63.436509" lon="10.436503">
        <ele>26.9</ele>
      </trkpt>
      <trkpt lat="63.436464" lon="10.436339">
        <ele>27</ele>
      </trkpt>
      <trkpt lat="63.436455" lon="10.436289">
        <ele>27</ele>
      </trkpt>
      <trkpt lat="63.436414" lon="10.435907">
        <ele>26.8</ele>
      </trkpt>
      <trkpt lat="63.436374" lon="10.435499">
        <ele>26.4</ele>
      </trkpt>
      <trkpt lat="63.436363" lon="10.435430">
        <ele>26.3</ele>
      </trkpt>
      <trkpt lat="63.436341" lon="10.435298">
        <ele>26.1</ele>
      </trkpt>
      <trkpt lat="63.436284" lon="10.435172">
        <ele>26.5</ele>
      </trkpt>
      <trkpt lat="63.436189" lon="10.435093">
        <ele>27.5</ele>
      </trkpt>
      <trkpt lat="63.436076" lon="10.434991">
        <ele>28.9</ele>
      </trkpt>
      <trkpt lat="63.435903" lon="10.434837">
        <ele>30.8</ele>
      </trkpt>
      <trkpt lat="63.435777" lon="10.434683">
        <ele>32</ele>
      </trkpt>
      <trkpt lat="63.435761" lon="10.434658">
        <ele>32.2</ele>
      </trkpt>
      <trkpt lat="63.435614" lon="10.434386">
        <ele>33.1</ele>
      </trkpt>
      <trkpt lat="63.435585" lon="10.434313">
        <ele>33.4</ele>
      </trkpt>
      <trkpt lat="63.435441" lon="10.434011">
        <ele>34.5</ele>
      </trkpt>
      <trkpt lat="63.435426" lon="10.433980">
        <ele>34.6</ele>
      </trkpt>
      <trkpt lat="63.435290" lon="10.433715">
        <ele>35.6</ele>
      </trkpt>
      <trkpt lat="63.435226" lon="10.433573">
        <ele>36</ele>
      </trkpt>
      <trkpt lat="63.435209" lon="10.433538">
        <ele>36.1</ele>
      </trkpt>
      <trkpt lat="63.435178" lon="10.433463">
        <ele>36.2</ele>
      </trkpt>
      <trkpt lat="63.435162" lon="10.433423">
        <ele>36.2</ele>
      </trkpt>
      <trkpt lat="63.435035" lon="10.433117">
        <ele>36.3</ele>
      </trkpt>
      <trkpt lat="63.435004" lon="10.433025">
        <ele>36.3</ele>
      </trkpt>
      <trkpt lat="63.434870" lon="10.432704">
        <ele>36.4</ele>
      </trkpt>
      <trkpt lat="63.434798" lon="10.432517">
        <ele>36.5</ele>
      </trkpt>
      <trkpt lat="63.434670" lon="10.432157">
        <ele>36.6</ele>
      </trkpt>
      <trkpt lat="63.434536" lon="10.431841">
        <ele>36.6</ele>
      </trkpt>
      <trkpt lat="63.434398" lon="10.431497">
        <ele>36.6</ele>
      </trkpt>
      <trkpt lat="63.434373" lon="10.431442">
        <ele>36.6</ele>
      </trkpt>
      <trkpt lat="63.434251" lon="10.431111">
        <ele>36.5</ele>
      </trkpt>
      <trkpt lat="63.434190" lon="10.430938">
        <ele>36.4</ele>
      </trkpt>
      <trkpt lat="63.434078" lon="10.430548">
        <ele>36.1</ele>
      </trkpt>
      <trkpt lat="63.434024" lon="10.430275">
        <ele>35.9</ele>
      </trkpt>
      <trkpt lat="63.433968" lon="10.429837">
        <ele>35.6</ele>
      </trkpt>
      <trkpt lat="63.433926" lon="10.429661">
        <ele>35.6</ele>
      </trkpt>
      <trkpt lat="63.433841" lon="10.429599">
        <ele>36.4</ele>
      </trkpt>
      <trkpt lat="63.433746" lon="10.429592">
        <ele>37.4</ele>
      </trkpt>
      <trkpt lat="63.433707" lon="10.429588">
        <ele>37.9</ele>
      </trkpt>
      <trkpt lat="63.433682" lon="10.429589">
        <ele>38.2</ele>
      </trkpt>
      <trkpt lat="63.433659" lon="10.429590">
        <ele>38.5</ele>
      </trkpt>
      <trkpt lat="63.433551" lon="10.429586">
        <ele>40</ele>
      </trkpt>
      <trkpt lat="63.433532" lon="10.429582">
        <ele>40.3</ele>
      </trkpt>
      <trkpt lat="63.433490" lon="10.429578">
        <ele>40.8</ele>
      </trkpt>
      <trkpt lat="63.433382" lon="10.429543">
        <ele>42.3</ele>
      </trkpt>
      <trkpt lat="63.433351" lon="10.429515">
        <ele>42.7</ele>
      </trkpt>
      <trkpt lat="63.433334" lon="10.429505">
        <ele>42.9</ele>
      </trkpt>
      <trkpt lat="63.433181" lon="10.429410">
        <ele>44.4</ele>
      </trkpt>
      <trkpt lat="63.433121" lon="10.429374">
        <ele>44.9</ele>
      </trkpt>
      <trkpt lat="63.432947" lon="10.429241">
        <ele>46.1</ele>
      </trkpt>
      <trkpt lat="63.432888" lon="10.429192">
        <ele>46.5</ele>
      </trkpt>
      <trkpt lat="63.432723" lon="10.429073">
        <ele>47.9</ele>
      </trkpt>
      <trkpt lat="63.432683" lon="10.429043">
        <ele>48.4</ele>
      </trkpt>
      <trkpt lat="63.432624" lon="10.428994">
        <ele>49.1</ele>
      </trkpt>
      <trkpt lat="63.432567" lon="10.428939">
        <ele>49.8</ele>
      </trkpt>
      <trkpt lat="63.432512" lon="10.428882">
        <ele>50.5</ele>
      </trkpt>
      <trkpt lat="63.432331" lon="10.428714">
        <ele>52.8</ele>
      </trkpt>
      <trkpt lat="63.432167" lon="10.428589">
        <ele>54.8</ele>
      </trkpt>
      <trkpt lat="63.432040" lon="10.428431">
        <ele>56.1</ele>
      </trkpt>
      <trkpt lat="63.431947" lon="10.428117">
        <ele>56.7</ele>
      </trkpt>
      <trkpt lat="63.431907" lon="10.427935">
        <ele>57.1</ele>
      </trkpt>
      <trkpt lat="63.431910" lon="10.427918">
        <ele>57.1</ele>
      </trkpt>
      <trkpt lat="63.431910" lon="10.427913">
        <ele>57.1</ele>
      </trkpt>
      <trkpt lat="63.431844" lon="10.427770">
        <ele>57.2</ele>
      </trkpt>
      <trkpt lat="63.431796" lon="10.427626">
        <ele>57.3</ele>
      </trkpt>
      <trkpt lat="63.431748" lon="10.427434">
        <ele>57.4</ele>
      </trkpt>
      <trkpt lat="63.431747" lon="10.427409">
        <ele>57.4</ele>
      </trkpt>
      <trkpt lat="63.431750" lon="10.427415">
        <ele>57.4</ele>
      </trkpt>
      <trkpt lat="63.431704" lon="10.427283">
        <ele>57.4</ele>
      </trkpt>
      <trkpt lat="63.431578" lon="10.426960">
        <ele>57.1</ele>
      </trkpt>
      <trkpt lat="63.431444" lon="10.426671">
        <ele>56.7</ele>
      </trkpt>
      <trkpt lat="63.431403" lon="10.426586">
        <ele>56.6</ele>
      </trkpt>
      <trkpt lat="63.431381" lon="10.426559">
        <ele>56.5</ele>
      </trkpt>
      <trkpt lat="63.431383" lon="10.426560">
        <ele>56.5</ele>
      </trkpt>
      <trkpt lat="63.431383" lon="10.426560">
        <ele>56.5</ele>
      </trkpt>
      <trkpt lat="63.431383" lon="10.426560">
        <ele>56.5</ele>
      </trkpt>
      <trkpt lat="63.431383" lon="10.426560">
        <ele>56.5</ele>
      </trkpt>
      <trkpt lat="63.431383" lon="10.426560">
        <ele>56.5</ele>
      </trkpt>
      <trkpt lat="63.431385" lon="10.426560">
        <ele>56.5</ele>
      </trkpt>
      <trkpt lat="63.431386" lon="10.426560">
        <ele>56.5</ele>
      </trkpt>
      <trkpt lat="63.431392" lon="10.426561">
        <ele>56.5</ele>
      </trkpt>
      <trkpt lat="63.431393" lon="10.426561">
        <ele>56.5</ele>
      </trkpt>
      <trkpt lat="63.431394" lon="10.426558">
        <ele>56.5</ele>
      </trkpt>
      <trkpt lat="63.431392" lon="10.426551">
        <ele>56.5</ele>
      </trkpt>
      <trkpt lat="63.431351" lon="10.426458">
        <ele>56.3</ele>
      </trkpt>
      <trkpt lat="63.431282" lon="10.426218">
        <ele>55.9</ele>
      </trkpt>
      <trkpt lat="63.431248" lon="10.426081">
        <ele>55.7</ele>
      </trkpt>
      <trkpt lat="63.431216" lon="10.425883">
        <ele>55.5</ele>
      </trkpt>
      <trkpt lat="63.431202" lon="10.425564">
        <ele>55</ele>
      </trkpt>
      <trkpt lat="63.431207" lon="10.425303">
        <ele>54.8</ele>
      </trkpt>
      <trkpt lat="63.431186" lon="10.424988">
        <ele>54.8</ele>
      </trkpt>
      <trkpt lat="63.431112" lon="10.424696">
        <ele>55.1</ele>
      </trkpt>
      <trkpt lat="63.431051" lon="10.424603">
        <ele>55.5</ele>
      </trkpt>
      <trkpt lat="63.431028" lon="10.424588">
        <ele>55.6</ele>
      </trkpt>
      <trkpt lat="63.430843" lon="10.424494">
        <ele>56.4</ele>
      </trkpt>
      <trkpt lat="63.430789" lon="10.424460">
        <ele>56.6</ele>
      </trkpt>
      <trkpt lat="63.430589" lon="10.424371">
        <ele>57.2</ele>
      </trkpt>
      <trkpt lat="63.430512" lon="10.424341">
        <ele>57.3</ele>
      </trkpt>
      <trkpt lat="63.430370" lon="10.424248">
        <ele>57.3</ele>
      </trkpt>
      <trkpt lat="63.430351" lon="10.424202">
        <ele>57.2</ele>
      </trkpt>
      <trkpt lat="63.430263" lon="10.423868">
        <ele>56.1</ele>
      </trkpt>
      <trkpt lat="63.430173" lon="10.423501">
        <ele>54.3</ele>
      </trkpt>
      <trkpt lat="63.430119" lon="10.423279">
        <ele>53.6</ele>
      </trkpt>
      <trkpt lat="63.430000" lon="10.422856">
        <ele>53.1</ele>
      </trkpt>
      <trkpt lat="63.429971" lon="10.422769">
        <ele>53.1</ele>
      </trkpt>
      <trkpt lat="63.429949" lon="10.422685">
        <ele>53.1</ele>
      </trkpt>
      <trkpt lat="63.429885" lon="10.422442">
        <ele>52.9</ele>
      </trkpt>
      <trkpt lat="63.429823" lon="10.422244">
        <ele>52.8</ele>
      </trkpt>
      <trkpt lat="63.429719" lon="10.421874">
        <ele>52.5</ele>
      </trkpt>
      <trkpt lat="63.429680" lon="10.421759">
        <ele>52.5</ele>
      </trkpt>
      <trkpt lat="63.429567" lon="10.421368">
        <ele>52.2</ele>
      </trkpt>
      <trkpt lat="63.429482" lon="10.421093">
        <ele>52.1</ele>
      </trkpt>
      <trkpt lat="63.429322" lon="10.420782">
        <ele>51.9</ele>
      </trkpt>
      <trkpt lat="63.429260" lon="10.420585">
        <ele>51.9</ele>
      </trkpt>
      <trkpt lat="63.429215" lon="10.420369">
        <ele>51.9</ele>
      </trkpt>
      <trkpt lat="63.429128" lon="10.419952">
        <ele>51.8</ele>
      </trkpt>
      <trkpt lat="63.429044" lon="10.419710">
        <ele>51.7</ele>
      </trkpt>
      <trkpt lat="63.428906" lon="10.419443">
        <ele>51.5</ele>
      </trkpt>
      <trkpt lat="63.428745" lon="10.419128">
        <ele>51.4</ele>
      </trkpt>
      <trkpt lat="63.428718" lon="10.419076">
        <ele>51.4</ele>
      </trkpt>
      <trkpt lat="63.428558" lon="10.418777">
        <ele>51.4</ele>
      </trkpt>
      <trkpt lat="63.428421" lon="10.418580">
        <ele>51.7</ele>
      </trkpt>
      <trkpt lat="63.428251" lon="10.418538">
        <ele>51.9</ele>
      </trkpt>
      <trkpt lat="63.428131" lon="10.418497">
        <ele>52.1</ele>
      </trkpt>
      <trkpt lat="63.428021" lon="10.418453">
        <ele>52.2</ele>
      </trkpt>
      <trkpt lat="63.427896" lon="10.418241">
        <ele>52.3</ele>
      </trkpt>
      <trkpt lat="63.427848" lon="10.417809">
        <ele>52.2</ele>
      </trkpt>
      <trkpt lat="63.427826" lon="10.417404">
        <ele>52.1</ele>
      </trkpt>
      <trkpt lat="63.427802" lon="10.416978">
        <ele>52</ele>
      </trkpt>
      <trkpt lat="63.427795" lon="10.416896">
        <ele>52</ele>
      </trkpt>
      <trkpt lat="63.427800" lon="10.416496">
        <ele>51.8</ele>
      </trkpt>
      <trkpt lat="63.427855" lon="10.416346">
        <ele>51.4</ele>
      </trkpt>
      <trkpt lat="63.427973" lon="10.416184">
        <ele>50.6</ele>
      </trkpt>
      <trkpt lat="63.428027" lon="10.416176">
        <ele>50.4</ele>
      </trkpt>
      <trkpt lat="63.428130" lon="10.416156">
        <ele>50</ele>
      </trkpt>
      <trkpt lat="63.428169" lon="10.416149">
        <ele>49.8</ele>
      </trkpt>
      <trkpt lat="63.428348" lon="10.416114">
        <ele>49.1</ele>
      </trkpt>
      <trkpt lat="63.428426" lon="10.416091">
        <ele>48.8</ele>
      </trkpt>
      <trkpt lat="63.428549" lon="10.415972">
        <ele>48.3</ele>
      </trkpt>
      <trkpt lat="63.428636" lon="10.415860">
        <ele>48</ele>
      </trkpt>
      <trkpt lat="63.428644" lon="10.415815">
        <ele>47.9</ele>
      </trkpt>
      <trkpt lat="63.428632" lon="10.415723">
        <ele>48</ele>
      </trkpt>
      <trkpt lat="63.428601" lon="10.415630">
        <ele>48.2</ele>
      </trkpt>
      <trkpt lat="63.428558" lon="10.415468">
        <ele>48.4</ele>
      </trkpt>
      <trkpt lat="63.428510" lon="10.415308">
        <ele>48.6</ele>
      </trkpt>
      <trkpt lat="63.428468" lon="10.415130">
        <ele>48.8</ele>
      </trkpt>
      <trkpt lat="63.428492" lon="10.414878">
        <ele>48.9</ele>
      </trkpt>
      <trkpt lat="63.428532" lon="10.414469">
        <ele>48.7</ele>
      </trkpt>
      <trkpt lat="63.428534" lon="10.414403">
        <ele>48.7</ele>
      </trkpt>
      <trkpt lat="63.428513" lon="10.413955">
        <ele>49.3</ele>
      </trkpt>
      <trkpt lat="63.428511" lon="10.413903">
        <ele>49.3</ele>
      </trkpt>
      <trkpt lat="63.428476" lon="10.413566">
        <ele>49.5</ele>
      </trkpt>
      <trkpt lat="63.428437" lon="10.413200">
        <ele>50</ele>
      </trkpt>
      <trkpt lat="63.428426" lon="10.413066">
        <ele>50.3</ele>
      </trkpt>
      <trkpt lat="63.428448" lon="10.413000">
        <ele>50.5</ele>
      </trkpt>
      <trkpt lat="63.428533" lon="10.412951">
        <ele>50.5</ele>
      </trkpt>
      <trkpt lat="63.428620" lon="10.412902">
        <ele>50.5</ele>
      </trkpt>
      <trkpt lat="63.428639" lon="10.412900">
        <ele>50.5</ele>
      </trkpt>
      <trkpt lat="63.428692" lon="10.412888">
        <ele>50.5</ele>
      </trkpt>
      <trkpt lat="63.428783" lon="10.412754">
        <ele>50.8</ele>
      </trkpt>
      <trkpt lat="63.428842" lon="10.412653">
        <ele>51</ele>
      </trkpt>
      <trkpt lat="63.428938" lon="10.412551">
        <ele>51.1</ele>
      </trkpt>
      <trkpt lat="63.429115" lon="10.412493">
        <ele>50.7</ele>
      </trkpt>
      <trkpt lat="63.429170" lon="10.412483">
        <ele>50.5</ele>
      </trkpt>
      <trkpt lat="63.429223" lon="10.412486">
        <ele>50.4</ele>
      </trkpt>
      <trkpt lat="63.429303" lon="10.412524">
        <ele>50.2</ele>
      </trkpt>
      <trkpt lat="63.429367" lon="10.412582">
        <ele>50.1</ele>
      </trkpt>
      <trkpt lat="63.429401" lon="10.412602">
        <ele>50.1</ele>
      </trkpt>
      <trkpt lat="63.429486" lon="10.412601">
        <ele>50</ele>
      </trkpt>
      <trkpt lat="63.429625" lon="10.412556">
        <ele>50</ele>
      </trkpt>
      <trkpt lat="63.429664" lon="10.412505">
        <ele>50</ele>
      </trkpt>
      <trkpt lat="63.429787" lon="10.412224">
        <ele>49.3</ele>
      </trkpt>
      <trkpt lat="63.429873" lon="10.411991">
        <ele>49.2</ele>
      </trkpt>
      <trkpt lat="63.429882" lon="10.411955">
        <ele>49.2</ele>
      </trkpt>
      <trkpt lat="63.429911" lon="10.411729">
        <ele>49.4</ele>
      </trkpt>
      <trkpt lat="63.429900" lon="10.411623">
        <ele>49.5</ele>
      </trkpt>
      <trkpt lat="63.429857" lon="10.411567">
        <ele>49.6</ele>
      </trkpt>
      <trkpt lat="63.429702" lon="10.411623">
        <ele>50.3</ele>
      </trkpt>
      <trkpt lat="63.429557" lon="10.411680">
        <ele>50.9</ele>
      </trkpt>
      <trkpt lat="63.429384" lon="10.411695">
        <ele>52.1</ele>
      </trkpt>
      <trkpt lat="63.429299" lon="10.411670">
        <ele>52.6</ele>
      </trkpt>
      <trkpt lat="63.429287" lon="10.411652">
        <ele>52.7</ele>
      </trkpt>
      <trkpt lat="63.429259" lon="10.411619">
        <ele>52.9</ele>
      </trkpt>
      <trkpt lat="63.429138" lon="10.411512">
        <ele>53.4</ele>
      </trkpt>
      <trkpt lat="63.429120" lon="10.411491">
        <ele>53.5</ele>
      </trkpt>
      <trkpt lat="63.428983" lon="10.411417">
        <ele>53.6</ele>
      </trkpt>
      <trkpt lat="63.428880" lon="10.411518">
        <ele>54.3</ele>
      </trkpt>
      <trkpt lat="63.428724" lon="10.411686">
        <ele>55</ele>
      </trkpt>
      <trkpt lat="63.428601" lon="10.411743">
        <ele>55.1</ele>
      </trkpt>
      <trkpt lat="63.428573" lon="10.411738">
        <ele>55.1</ele>
      </trkpt>
      <trkpt lat="63.428394" lon="10.411691">
        <ele>55.3</ele>
      </trkpt>
    </trkseg>
  </trk>
</gpx>