<?xml version="1.0" encoding="utf-8"?>
<gpx xmlns="http://www.topografix.com/GPX/1/1" xmlns:gpxx="http://www.garmin.com/xmlschemas/GpxExtensions/v3" xmlns:gpxtpx="http://www.garmin.com/xmlschemas/TrackPointExtension/v1" creator="doogal.co.uk" version="1.1" xmlns:xsi="http://www.w3.org/2001/XMLSchema-instance" xsi:schemaLocation="http://www.topografix.com/GPX/1/1 http://www.topografix.com/GPX/1/1/gpx.xsd http://www.garmin.com/xmlschemas/GpxExtensions/v3 http://www.garmin.com/xmlschemas/GpxExtensionsv3.xsd http://www.garmin.com/xmlschemas/TrackPointExtension/v1 http://www.garmin.com/xmlschemas/TrackPointExtensionv1.xsd">
  <metadata>
    <link href="https://www.doogal.co.uk">
      <text>doogal.co.uk</text>
    </link>
    <time>2026-03-19T10:27:13.9975269Z</time>
  </metadata>
  <trk>
    <name>Trondheim-stafetten E8 Sverresborg 3200m</name>
    <trkseg>
      <trkpt lat="63.420485" lon="10.359024">
        <ele>147.4</ele>
      </trkpt>
      <trkpt lat="63.420499" lon="10.359008">
        <ele>147.5</ele>
      </trkpt>
      <trkpt lat="63.420519" lon="10.359002">
        <ele>147.6</ele>
      </trkpt>
      <trkpt lat="63.420596" lon="10.359005">
        <ele>147</ele>
      </trkpt>
      <trkpt lat="63.420677" lon="10.359019">
        <ele>146.3</ele>
      </trkpt>
      <trkpt lat="63.420735" lon="10.359025">
        <ele>145.7</ele>
      </trkpt>
      <trkpt lat="63.420942" lon="10.359029">
        <ele>143.8</ele>
      </trkpt>
      <trkpt lat="63.420971" lon="10.359024">
        <ele>143.5</ele>
      </trkpt>
      <trkpt lat="63.421132" lon="10.359036">
        <ele>141.9</ele>
      </trkpt>
      <trkpt lat="63.421259" lon="10.359048">
        <ele>140.8</ele>
      </trkpt>
      <trkpt lat="63.421385" lon="10.359045">
        <ele>139.7</ele>
      </trkpt>
      <trkpt lat="63.421483" lon="10.359053">
        <ele>138.9</ele>
      </trkpt>
      <trkpt lat="63.421517" lon="10.359052">
        <ele>138.7</ele>
      </trkpt>
      <trkpt lat="63.421665" lon="10.359020">
        <ele>137.6</ele>
      </trkpt>
      <trkpt lat="63.421866" lon="10.359012">
        <ele>136.1</ele>
      </trkpt>
      <trkpt lat="63.421925" lon="10.359028">
        <ele>135.7</ele>
      </trkpt>
      <trkpt lat="63.421938" lon="10.359040">
        <ele>135.6</ele>
      </trkpt>
      <trkpt lat="63.421939" lon="10.359038">
        <ele>135.5</ele>
      </trkpt>
      <trkpt lat="63.421941" lon="10.359036">
        <ele>135.5</ele>
      </trkpt>
      <trkpt lat="63.421944" lon="10.359039">
        <ele>135.5</ele>
      </trkpt>
      <trkpt lat="63.421944" lon="10.359039">
        <ele>135.5</ele>
      </trkpt>
      <trkpt lat="63.421969" lon="10.359036">
        <ele>135.3</ele>
      </trkpt>
      <trkpt lat="63.422057" lon="10.359048">
        <ele>134.5</ele>
      </trkpt>
      <trkpt lat="63.422162" lon="10.358987">
        <ele>133.5</ele>
      </trkpt>
      <trkpt lat="63.422338" lon="10.358984">
        <ele>132.9</ele>
      </trkpt>
      <trkpt lat="63.422519" lon="10.359138">
        <ele>132.8</ele>
      </trkpt>
      <trkpt lat="63.422617" lon="10.359215">
        <ele>132.7</ele>
      </trkpt>
      <trkpt lat="63.422787" lon="10.359363">
        <ele>132.5</ele>
      </trkpt>
      <trkpt lat="63.422844" lon="10.359418">
        <ele>132.3</ele>
      </trkpt>
      <trkpt lat="63.422876" lon="10.359449">
        <ele>132.2</ele>
      </trkpt>
      <trkpt lat="63.423051" lon="10.359633">
        <ele>131.3</ele>
      </trkpt>
      <trkpt lat="63.423137" lon="10.359701">
        <ele>130.8</ele>
      </trkpt>
      <trkpt lat="63.423332" lon="10.359885">
        <ele>129.2</ele>
      </trkpt>
      <trkpt lat="63.423450" lon="10.359993">
        <ele>128.2</ele>
      </trkpt>
      <trkpt lat="63.423567" lon="10.360104">
        <ele>127.2</ele>
      </trkpt>
      <trkpt lat="63.423751" lon="10.360309">
        <ele>125.6</ele>
      </trkpt>
      <trkpt lat="63.423788" lon="10.360355">
        <ele>125.3</ele>
      </trkpt>
      <trkpt lat="63.423978" lon="10.360568">
        <ele>123.2</ele>
      </trkpt>
      <trkpt lat="63.424132" lon="10.360726">
        <ele>121.3</ele>
      </trkpt>
      <trkpt lat="63.424179" lon="10.360871">
        <ele>121</ele>
      </trkpt>
      <trkpt lat="63.424201" lon="10.361043">
        <ele>120.7</ele>
      </trkpt>
      <trkpt lat="63.424205" lon="10.361131">
        <ele>120.6</ele>
      </trkpt>
      <trkpt lat="63.424191" lon="10.361578">
        <ele>119.9</ele>
      </trkpt>
      <trkpt lat="63.424161" lon="10.362016">
        <ele>119.3</ele>
      </trkpt>
      <trkpt lat="63.424137" lon="10.362266">
        <ele>118.9</ele>
      </trkpt>
      <trkpt lat="63.424121" lon="10.362481">
        <ele>118.6</ele>
      </trkpt>
      <trkpt lat="63.424115" lon="10.362603">
        <ele>118.4</ele>
      </trkpt>
      <trkpt lat="63.424116" lon="10.362605">
        <ele>118.4</ele>
      </trkpt>
      <trkpt lat="63.424102" lon="10.362757">
        <ele>118.2</ele>
      </trkpt>
      <trkpt lat="63.424066" lon="10.363076">
        <ele>117.7</ele>
      </trkpt>
      <trkpt lat="63.424022" lon="10.363487">
        <ele>117</ele>
      </trkpt>
      <trkpt lat="63.424006" lon="10.363661">
        <ele>116.7</ele>
      </trkpt>
      <trkpt lat="63.423937" lon="10.364033">
        <ele>116.1</ele>
      </trkpt>
      <trkpt lat="63.423923" lon="10.364094">
        <ele>116</ele>
      </trkpt>
      <trkpt lat="63.423890" lon="10.364356">
        <ele>115.5</ele>
      </trkpt>
      <trkpt lat="63.423881" lon="10.364419">
        <ele>115.4</ele>
      </trkpt>
      <trkpt lat="63.423833" lon="10.364817">
        <ele>114.7</ele>
      </trkpt>
      <trkpt lat="63.423788" lon="10.365222">
        <ele>114</ele>
      </trkpt>
      <trkpt lat="63.423740" lon="10.365680">
        <ele>113</ele>
      </trkpt>
      <trkpt lat="63.423715" lon="10.365838">
        <ele>112.6</ele>
      </trkpt>
      <trkpt lat="63.423647" lon="10.366239">
        <ele>111.5</ele>
      </trkpt>
      <trkpt lat="63.423576" lon="10.366623">
        <ele>110.4</ele>
      </trkpt>
      <trkpt lat="63.423546" lon="10.366779">
        <ele>109.9</ele>
      </trkpt>
      <trkpt lat="63.423459" lon="10.367137">
        <ele>108.8</ele>
      </trkpt>
      <trkpt lat="63.423401" lon="10.367349">
        <ele>108.1</ele>
      </trkpt>
      <trkpt lat="63.423280" lon="10.367651">
        <ele>107.5</ele>
      </trkpt>
      <trkpt lat="63.423193" lon="10.367817">
        <ele>107.1</ele>
      </trkpt>
      <trkpt lat="63.423022" lon="10.368023">
        <ele>106.1</ele>
      </trkpt>
      <trkpt lat="63.422945" lon="10.368071">
        <ele>105.7</ele>
      </trkpt>
      <trkpt lat="63.422751" lon="10.368191">
        <ele>105</ele>
      </trkpt>
      <trkpt lat="63.422610" lon="10.368294">
        <ele>104.7</ele>
      </trkpt>
      <trkpt lat="63.422449" lon="10.368419">
        <ele>104.6</ele>
      </trkpt>
      <trkpt lat="63.422349" lon="10.368487">
        <ele>104.7</ele>
      </trkpt>
      <trkpt lat="63.422289" lon="10.368533">
        <ele>104.9</ele>
      </trkpt>
      <trkpt lat="63.422182" lon="10.368726">
        <ele>104.1</ele>
      </trkpt>
      <trkpt lat="63.422131" lon="10.368851">
        <ele>102.8</ele>
      </trkpt>
      <trkpt lat="63.422050" lon="10.369033">
        <ele>100.6</ele>
      </trkpt>
      <trkpt lat="63.422010" lon="10.369275">
        <ele>98.5</ele>
      </trkpt>
      <trkpt lat="63.422036" lon="10.369345">
        <ele>97.8</ele>
      </trkpt>
      <trkpt lat="63.422078" lon="10.369379">
        <ele>96.9</ele>
      </trkpt>
      <trkpt lat="63.422233" lon="10.369327">
        <ele>94.2</ele>
      </trkpt>
      <trkpt lat="63.422285" lon="10.369329">
        <ele>93.4</ele>
      </trkpt>
      <trkpt lat="63.422325" lon="10.369391">
        <ele>92.7</ele>
      </trkpt>
      <trkpt lat="63.422339" lon="10.369435">
        <ele>92.4</ele>
      </trkpt>
      <trkpt lat="63.422337" lon="10.369533">
        <ele>91.8</ele>
      </trkpt>
      <trkpt lat="63.422213" lon="10.369840">
        <ele>89.4</ele>
      </trkpt>
      <trkpt lat="63.422194" lon="10.369877">
        <ele>89</ele>
      </trkpt>
      <trkpt lat="63.422155" lon="10.369946">
        <ele>88.4</ele>
      </trkpt>
      <trkpt lat="63.422062" lon="10.370127">
        <ele>86.7</ele>
      </trkpt>
      <trkpt lat="63.422041" lon="10.370268">
        <ele>85.7</ele>
      </trkpt>
      <trkpt lat="63.422060" lon="10.370337">
        <ele>85.1</ele>
      </trkpt>
      <trkpt lat="63.422149" lon="10.370340">
        <ele>83.7</ele>
      </trkpt>
      <trkpt lat="63.422248" lon="10.370262">
        <ele>82.1</ele>
      </trkpt>
      <trkpt lat="63.422273" lon="10.370243">
        <ele>81.8</ele>
      </trkpt>
      <trkpt lat="63.422342" lon="10.370184">
        <ele>80.8</ele>
      </trkpt>
      <trkpt lat="63.422548" lon="10.370064">
        <ele>77.7</ele>
      </trkpt>
      <trkpt lat="63.422587" lon="10.370055">
        <ele>77.1</ele>
      </trkpt>
      <trkpt lat="63.422759" lon="10.369977">
        <ele>78.6</ele>
      </trkpt>
      <trkpt lat="63.422781" lon="10.369970">
        <ele>78.7</ele>
      </trkpt>
      <trkpt lat="63.422932" lon="10.369843">
        <ele>80</ele>
      </trkpt>
      <trkpt lat="63.422981" lon="10.369791">
        <ele>80.4</ele>
      </trkpt>
      <trkpt lat="63.423035" lon="10.369751">
        <ele>80.9</ele>
      </trkpt>
      <trkpt lat="63.423070" lon="10.369732">
        <ele>81.2</ele>
      </trkpt>
      <trkpt lat="63.423088" lon="10.369717">
        <ele>81.4</ele>
      </trkpt>
      <trkpt lat="63.423140" lon="10.369672">
        <ele>81.8</ele>
      </trkpt>
      <trkpt lat="63.423282" lon="10.369571">
        <ele>82.9</ele>
      </trkpt>
      <trkpt lat="63.423458" lon="10.369426">
        <ele>84.2</ele>
      </trkpt>
      <trkpt lat="63.423479" lon="10.369410">
        <ele>84.3</ele>
      </trkpt>
      <trkpt lat="63.423575" lon="10.369333">
        <ele>84.9</ele>
      </trkpt>
      <trkpt lat="63.423661" lon="10.369266">
        <ele>85.2</ele>
      </trkpt>
      <trkpt lat="63.423759" lon="10.369200">
        <ele>85.6</ele>
      </trkpt>
      <trkpt lat="63.423951" lon="10.369049">
        <ele>86.3</ele>
      </trkpt>
      <trkpt lat="63.424021" lon="10.368973">
        <ele>86.5</ele>
      </trkpt>
      <trkpt lat="63.424162" lon="10.368653">
        <ele>86.7</ele>
      </trkpt>
      <trkpt lat="63.424258" lon="10.368295">
        <ele>86.6</ele>
      </trkpt>
      <trkpt lat="63.424302" lon="10.368193">
        <ele>86.6</ele>
      </trkpt>
      <trkpt lat="63.424354" lon="10.368100">
        <ele>86.6</ele>
      </trkpt>
      <trkpt lat="63.424427" lon="10.367975">
        <ele>86.7</ele>
      </trkpt>
      <trkpt lat="63.424476" lon="10.367912">
        <ele>86.8</ele>
      </trkpt>
      <trkpt lat="63.424501" lon="10.367893">
        <ele>86.8</ele>
      </trkpt>
      <trkpt lat="63.424526" lon="10.367878">
        <ele>86.9</ele>
      </trkpt>
      <trkpt lat="63.424576" lon="10.367878">
        <ele>86.5</ele>
      </trkpt>
      <trkpt lat="63.424634" lon="10.367938">
        <ele>85.9</ele>
      </trkpt>
      <trkpt lat="63.424663" lon="10.367987">
        <ele>85.6</ele>
      </trkpt>
      <trkpt lat="63.424783" lon="10.368198">
        <ele>84.8</ele>
      </trkpt>
      <trkpt lat="63.424912" lon="10.368149">
        <ele>84.5</ele>
      </trkpt>
      <trkpt lat="63.425081" lon="10.367928">
        <ele>84.2</ele>
      </trkpt>
      <trkpt lat="63.425111" lon="10.367901">
        <ele>84.1</ele>
      </trkpt>
      <trkpt lat="63.425290" lon="10.367647">
        <ele>83.3</ele>
      </trkpt>
      <trkpt lat="63.425344" lon="10.367510">
        <ele>82.9</ele>
      </trkpt>
      <trkpt lat="63.425506" lon="10.367199">
        <ele>81</ele>
      </trkpt>
      <trkpt lat="63.425568" lon="10.367091">
        <ele>80.1</ele>
      </trkpt>
      <trkpt lat="63.425754" lon="10.366811">
        <ele>77.9</ele>
      </trkpt>
      <trkpt lat="63.425822" lon="10.366673">
        <ele>77.2</ele>
      </trkpt>
      <trkpt lat="63.425950" lon="10.366295">
        <ele>76.3</ele>
      </trkpt>
      <trkpt lat="63.425969" lon="10.366219">
        <ele>76.2</ele>
      </trkpt>
      <trkpt lat="63.426052" lon="10.365855">
        <ele>75</ele>
      </trkpt>
      <trkpt lat="63.426096" lon="10.365638">
        <ele>74</ele>
      </trkpt>
      <trkpt lat="63.426174" lon="10.365277">
        <ele>72.1</ele>
      </trkpt>
      <trkpt lat="63.426266" lon="10.364942">
        <ele>70.1</ele>
      </trkpt>
      <trkpt lat="63.426412" lon="10.364659">
        <ele>67.4</ele>
      </trkpt>
      <trkpt lat="63.426438" lon="10.364627">
        <ele>66.9</ele>
      </trkpt>
      <trkpt lat="63.426620" lon="10.364497">
        <ele>64</ele>
      </trkpt>
      <trkpt lat="63.426719" lon="10.364455">
        <ele>62.4</ele>
      </trkpt>
      <trkpt lat="63.426925" lon="10.364400">
        <ele>59.1</ele>
      </trkpt>
      <trkpt lat="63.427060" lon="10.364370">
        <ele>57.4</ele>
      </trkpt>
      <trkpt lat="63.427232" lon="10.364214">
        <ele>54.9</ele>
      </trkpt>
      <trkpt lat="63.427259" lon="10.364171">
        <ele>54.4</ele>
      </trkpt>
      <trkpt lat="63.427396" lon="10.363949">
        <ele>52.1</ele>
      </trkpt>
      <trkpt lat="63.427511" lon="10.363794">
        <ele>50.3</ele>
      </trkpt>
      <trkpt lat="63.427536" lon="10.363759">
        <ele>50</ele>
      </trkpt>
      <trkpt lat="63.427708" lon="10.363505">
        <ele>47.3</ele>
      </trkpt>
      <trkpt lat="63.427777" lon="10.363407">
        <ele>46</ele>
      </trkpt>
      <trkpt lat="63.427847" lon="10.363354">
        <ele>45.1</ele>
      </trkpt>
      <trkpt lat="63.427885" lon="10.363403">
        <ele>45</ele>
      </trkpt>
      <trkpt lat="63.427915" lon="10.363631">
        <ele>43.1</ele>
      </trkpt>
      <trkpt lat="63.427920" lon="10.363959">
        <ele>40.3</ele>
      </trkpt>
      <trkpt lat="63.427924" lon="10.364409">
        <ele>36.7</ele>
      </trkpt>
      <trkpt lat="63.427919" lon="10.364834">
        <ele>33.5</ele>
      </trkpt>
      <trkpt lat="63.427922" lon="10.365238">
        <ele>31.3</ele>
      </trkpt>
      <trkpt lat="63.427948" lon="10.365651">
        <ele>28.4</ele>
      </trkpt>
      <trkpt lat="63.427971" lon="10.365765">
        <ele>26.8</ele>
      </trkpt>
      <trkpt lat="63.428055" lon="10.365968">
        <ele>25</ele>
      </trkpt>
      <trkpt lat="63.428043" lon="10.366052">
        <ele>25</ele>
      </trkpt>
      <trkpt lat="63.428025" lon="10.366079">
        <ele>25.1</ele>
      </trkpt>
      <trkpt lat="63.427969" lon="10.366148">
        <ele>24.7</ele>
      </trkpt>
      <trkpt lat="63.427959" lon="10.366183">
        <ele>24.5</ele>
      </trkpt>
      <trkpt lat="63.427957" lon="10.366284">
        <ele>24.2</ele>
      </trkpt>
      <trkpt lat="63.427976" lon="10.366602">
        <ele>22.6</ele>
      </trkpt>
      <trkpt lat="63.427976" lon="10.366662">
        <ele>22.3</ele>
      </trkpt>
      <trkpt lat="63.427909" lon="10.366951">
        <ele>20.4</ele>
      </trkpt>
      <trkpt lat="63.427830" lon="10.367035">
        <ele>20</ele>
      </trkpt>
      <trkpt lat="63.427805" lon="10.367026">
        <ele>19.8</ele>
      </trkpt>
      <trkpt lat="63.427786" lon="10.366993">
        <ele>19.6</ele>
      </trkpt>
      <trkpt lat="63.427767" lon="10.366878">
        <ele>19.1</ele>
      </trkpt>
      <trkpt lat="63.427809" lon="10.366734">
        <ele>18.3</ele>
      </trkpt>
      <trkpt lat="63.427864" lon="10.366712">
        <ele>17.7</ele>
      </trkpt>
      <trkpt lat="63.427915" lon="10.366777">
        <ele>16.9</ele>
      </trkpt>
      <trkpt lat="63.428059" lon="10.367671">
        <ele>16.3</ele>
      </trkpt>
      <trkpt lat="63.428178" lon="10.367583">
        <ele>16.6</ele>
      </trkpt>
      <trkpt lat="63.428265" lon="10.367779">
        <ele>16.6</ele>
      </trkpt>
      <trkpt lat="63.428356" lon="10.368154">
        <ele>16.2</ele>
      </trkpt>
      <trkpt lat="63.428377" lon="10.368237">
        <ele>16.1</ele>
      </trkpt>
      <trkpt lat="63.428468" lon="10.368600">
        <ele>15.6</ele>
      </trkpt>
      <trkpt lat="63.428548" lon="10.368940">
        <ele>15.3</ele>
      </trkpt>
      <trkpt lat="63.428653" lon="10.369358">
        <ele>15</ele>
      </trkpt>
      <trkpt lat="63.428756" lon="10.369751">
        <ele>14.8</ele>
      </trkpt>
      <trkpt lat="63.428802" lon="10.369905">
        <ele>14.7</ele>
      </trkpt>
      <trkpt lat="63.428893" lon="10.370287">
        <ele>14.5</ele>
      </trkpt>
      <trkpt lat="63.428965" lon="10.370671">
        <ele>14.3</ele>
      </trkpt>
      <trkpt lat="63.429012" lon="10.371048">
        <ele>14.3</ele>
      </trkpt>
      <trkpt lat="63.429014" lon="10.371088">
        <ele>14.3</ele>
      </trkpt>
      <trkpt lat="63.429022" lon="10.371137">
        <ele>14.3</ele>
      </trkpt>
      <trkpt lat="63.429072" lon="10.371504">
        <ele>14.3</ele>
      </trkpt>
      <trkpt lat="63.429122" lon="10.371733">
        <ele>14.2</ele>
      </trkpt>
      <trkpt lat="63.429194" lon="10.371970">
        <ele>14.1</ele>
      </trkpt>
      <trkpt lat="63.429334" lon="10.372284">
        <ele>13.9</ele>
      </trkpt>
      <trkpt lat="63.429363" lon="10.372333">
        <ele>13.8</ele>
      </trkpt>
      <trkpt lat="63.429461" lon="10.372487">
        <ele>13.6</ele>
      </trkpt>
      <trkpt lat="63.429524" lon="10.372599">
        <ele>13.5</ele>
      </trkpt>
      <trkpt lat="63.429669" lon="10.372943">
        <ele>13.2</ele>
      </trkpt>
      <trkpt lat="63.429705" lon="10.373110">
        <ele>13.1</ele>
      </trkpt>
      <trkpt lat="63.429772" lon="10.373532">
        <ele>12.9</ele>
      </trkpt>
      <trkpt lat="63.429819" lon="10.373772">
        <ele>12.8</ele>
      </trkpt>
      <trkpt lat="63.429901" lon="10.374078">
        <ele>12.6</ele>
      </trkpt>
      <trkpt lat="63.429920" lon="10.374158">
        <ele>12.5</ele>
      </trkpt>
      <trkpt lat="63.429982" lon="10.374391">
        <ele>12.4</ele>
      </trkpt>
      <trkpt lat="63.430083" lon="10.374807">
        <ele>11.9</ele>
      </trkpt>
      <trkpt lat="63.430099" lon="10.374900">
        <ele>11.9</ele>
      </trkpt>
      <trkpt lat="63.430122" lon="10.375078">
        <ele>11.9</ele>
      </trkpt>
      <trkpt lat="63.430150" lon="10.375429">
        <ele>12</ele>
      </trkpt>
      <trkpt lat="63.430162" lon="10.375912">
        <ele>11.9</ele>
      </trkpt>
      <trkpt lat="63.430160" lon="10.375996">
        <ele>11.8</ele>
      </trkpt>
      <trkpt lat="63.430159" lon="10.376258">
        <ele>11.7</ele>
      </trkpt>
      <trkpt lat="63.430155" lon="10.376528">
        <ele>11.6</ele>
      </trkpt>
      <trkpt lat="63.430156" lon="10.376780">
        <ele>11.4</ele>
      </trkpt>
      <trkpt lat="63.430153" lon="10.377185">
        <ele>11.2</ele>
      </trkpt>
      <trkpt lat="63.430137" lon="10.377435">
        <ele>11</ele>
      </trkpt>
      <trkpt lat="63.430113" lon="10.377495">
        <ele>10.8</ele>
      </trkpt>
      <trkpt lat="63.430060" lon="10.377538">
        <ele>11.2</ele>
      </trkpt>
      <trkpt lat="63.429898" lon="10.377555">
        <ele>11.8</ele>
      </trkpt>
      <trkpt lat="63.429787" lon="10.377620">
        <ele>12.2</ele>
      </trkpt>
      <trkpt lat="63.429772" lon="10.377674">
        <ele>12.2</ele>
      </trkpt>
      <trkpt lat="63.429749" lon="10.378030">
        <ele>12.2</ele>
      </trkpt>
      <trkpt lat="63.429738" lon="10.378464">
        <ele>12.1</ele>
      </trkpt>
      <trkpt lat="63.429735" lon="10.378554">
        <ele>12</ele>
      </trkpt>
      <trkpt lat="63.429692" lon="10.378992">
        <ele>11.8</ele>
      </trkpt>
      <trkpt lat="63.429662" lon="10.379237">
        <ele>11.7</ele>
      </trkpt>
      <trkpt lat="63.429600" lon="10.379637">
        <ele>11.6</ele>
      </trkpt>
      <trkpt lat="63.429562" lon="10.379779">
        <ele>11.5</ele>
      </trkpt>
      <trkpt lat="63.429423" lon="10.380138">
        <ele>11.6</ele>
      </trkpt>
      <trkpt lat="63.429398" lon="10.380190">
        <ele>11.6</ele>
      </trkpt>
      <trkpt lat="63.429304" lon="10.380585">
        <ele>11.7</ele>
      </trkpt>
      <trkpt lat="63.429280" lon="10.381004">
        <ele>11.7</ele>
      </trkpt>
      <trkpt lat="63.429241" lon="10.381336">
        <ele>11.6</ele>
      </trkpt>
      <trkpt lat="63.429173" lon="10.381725">
        <ele>11.7</ele>
      </trkpt>
      <trkpt lat="63.429095" lon="10.381995">
        <ele>11.7</ele>
      </trkpt>
      <trkpt lat="63.428998" lon="10.382349">
        <ele>11.5</ele>
      </trkpt>
      <trkpt lat="63.428934" lon="10.382545">
        <ele>11.5</ele>
      </trkpt>
      <trkpt lat="63.428826" lon="10.382874">
        <ele>11.5</ele>
      </trkpt>
      <trkpt lat="63.428708" lon="10.383239">
        <ele>11.6</ele>
      </trkpt>
      <trkpt lat="63.428642" lon="10.383624">
        <ele>11.7</ele>
      </trkpt>
      <trkpt lat="63.428622" lon="10.383785">
        <ele>11.8</ele>
      </trkpt>
      <trkpt lat="63.428561" lon="10.384189">
        <ele>11.8</ele>
      </trkpt>
      <trkpt lat="63.428507" lon="10.384604">
        <ele>11.9</ele>
      </trkpt>
      <trkpt lat="63.428446" lon="10.385020">
        <ele>11.9</ele>
      </trkpt>
    </trkseg>
  </trk>
</gpx>