<?xml version="1.0" encoding="utf-8"?>
<gpx xmlns="http://www.topografix.com/GPX/1/1" xmlns:gpxx="http://www.garmin.com/xmlschemas/GpxExtensions/v3" xmlns:gpxtpx="http://www.garmin.com/xmlschemas/TrackPointExtension/v1" creator="doogal.co.uk" version="1.1" xmlns:xsi="http://www.w3.org/2001/XMLSchema-instance" xsi:schemaLocation="http://www.topografix.com/GPX/1/1 http://www.topografix.com/GPX/1/1/gpx.xsd http://www.garmin.com/xmlschemas/GpxExtensions/v3 http://www.garmin.com/xmlschemas/GpxExtensionsv3.xsd http://www.garmin.com/xmlschemas/TrackPointExtension/v1 http://www.garmin.com/xmlschemas/TrackPointExtensionv1.xsd">
  <metadata>
    <link href="https://www.doogal.co.uk">
      <text>doogal.co.uk</text>
    </link>
    <time>2026-03-22T15:52:40.0338072Z</time>
  </metadata>
  <trk>
    <name>Trondheim-stafetten E9 Kalvskinnet 800m</name>
    <trkseg>
      <trkpt lat="63.428264" lon="10.385649">
        <ele>12.4</ele>
      </trkpt>
      <trkpt lat="63.428095" lon="10.385936">
        <ele>12.8</ele>
      </trkpt>
      <trkpt lat="63.428066" lon="10.385974">
        <ele>12.9</ele>
      </trkpt>
      <trkpt lat="63.427894" lon="10.386207">
        <ele>13.3</ele>
      </trkpt>
      <trkpt lat="63.427775" lon="10.386370">
        <ele>13.6</ele>
      </trkpt>
      <trkpt lat="63.427603" lon="10.386620">
        <ele>13.9</ele>
      </trkpt>
      <trkpt lat="63.427549" lon="10.386717">
        <ele>14</ele>
      </trkpt>
      <trkpt lat="63.427525" lon="10.386773">
        <ele>14.1</ele>
      </trkpt>
      <trkpt lat="63.427417" lon="10.387098">
        <ele>14.2</ele>
      </trkpt>
      <trkpt lat="63.427368" lon="10.387309">
        <ele>14.3</ele>
      </trkpt>
      <trkpt lat="63.427295" lon="10.387677">
        <ele>14.3</ele>
      </trkpt>
      <trkpt lat="63.427287" lon="10.387932">
        <ele>14.3</ele>
      </trkpt>
      <trkpt lat="63.427307" lon="10.388385">
        <ele>14.2</ele>
      </trkpt>
      <trkpt lat="63.427310" lon="10.388478">
        <ele>14.2</ele>
      </trkpt>
      <trkpt lat="63.427327" lon="10.388849">
        <ele>14.1</ele>
      </trkpt>
      <trkpt lat="63.427349" lon="10.389303">
        <ele>14.1</ele>
      </trkpt>
      <trkpt lat="63.427345" lon="10.389470">
        <ele>14.1</ele>
      </trkpt>
      <trkpt lat="63.427330" lon="10.389533">
        <ele>14.1</ele>
      </trkpt>
      <trkpt lat="63.427221" lon="10.389640">
        <ele>14.2</ele>
      </trkpt>
      <trkpt lat="63.427012" lon="10.389650">
        <ele>14.4</ele>
      </trkpt>
      <trkpt lat="63.426866" lon="10.389651">
        <ele>14.5</ele>
      </trkpt>
      <trkpt lat="63.426699" lon="10.389690">
        <ele>14.6</ele>
      </trkpt>
      <trkpt lat="63.426550" lon="10.389695">
        <ele>14.6</ele>
      </trkpt>
      <trkpt lat="63.426359" lon="10.389714">
        <ele>14.7</ele>
      </trkpt>
      <trkpt lat="63.426223" lon="10.389751">
        <ele>14.6</ele>
      </trkpt>
      <trkpt lat="63.426037" lon="10.389790">
        <ele>14.6</ele>
      </trkpt>
      <trkpt lat="63.425931" lon="10.389832">
        <ele>14.5</ele>
      </trkpt>
      <trkpt lat="63.425742" lon="10.389863">
        <ele>14.5</ele>
      </trkpt>
      <trkpt lat="63.425679" lon="10.389903">
        <ele>14.5</ele>
      </trkpt>
      <trkpt lat="63.425505" lon="10.389946">
        <ele>13.5</ele>
      </trkpt>
      <trkpt lat="63.425308" lon="10.389963">
        <ele>11.4</ele>
      </trkpt>
      <trkpt lat="63.425154" lon="10.390201">
        <ele>8.6</ele>
      </trkpt>
      <trkpt lat="63.425124" lon="10.390284">
        <ele>8</ele>
      </trkpt>
      <trkpt lat="63.425073" lon="10.390455">
        <ele>7.4</ele>
      </trkpt>
      <trkpt lat="63.425044" lon="10.390603">
        <ele>7.6</ele>
      </trkpt>
      <trkpt lat="63.425030" lon="10.390674">
        <ele>7.7</ele>
      </trkpt>
      <trkpt lat="63.424947" lon="10.391030">
        <ele>8.1</ele>
      </trkpt>
      <trkpt lat="63.424932" lon="10.391105">
        <ele>8.2</ele>
      </trkpt>
      <trkpt lat="63.424890" lon="10.391546">
        <ele>8.6</ele>
      </trkpt>
      <trkpt lat="63.424893" lon="10.391708">
        <ele>8.8</ele>
      </trkpt>
      <trkpt lat="63.424902" lon="10.391935">
        <ele>9.2</ele>
      </trkpt>
      <trkpt lat="63.424902" lon="10.392096">
        <ele>9.3</ele>
      </trkpt>
      <trkpt lat="63.424922" lon="10.392429">
        <ele>9.3</ele>
      </trkpt>
      <trkpt lat="63.424916" lon="10.392578">
        <ele>9.1</ele>
      </trkpt>
      <trkpt lat="63.424845" lon="10.392822">
        <ele>6.6</ele>
      </trkpt>
      <trkpt lat="63.424700" lon="10.393153">
        <ele>3.1</ele>
      </trkpt>
      <trkpt lat="63.424677" lon="10.393225">
        <ele>2.7</ele>
      </trkpt>
      <trkpt lat="63.424651" lon="10.393383">
        <ele>2.7</ele>
      </trkpt>
      <trkpt lat="63.424638" lon="10.393538">
        <ele>2.8</ele>
      </trkpt>
      <trkpt lat="63.424649" lon="10.393790">
        <ele>2.8</ele>
      </trkpt>
      <trkpt lat="63.424699" lon="10.394162">
        <ele>2.8</ele>
      </trkpt>
      <trkpt lat="63.424716" lon="10.394232">
        <ele>2.9</ele>
      </trkpt>
      <trkpt lat="63.424807" lon="10.394498">
        <ele>2.9</ele>
      </trkpt>
      <trkpt lat="63.424936" lon="10.394827">
        <ele>3</ele>
      </trkpt>
      <trkpt lat="63.424959" lon="10.394991">
        <ele>3</ele>
      </trkpt>
      <trkpt lat="63.424983" lon="10.395404">
        <ele>3</ele>
      </trkpt>
      <trkpt lat="63.424984" lon="10.395722">
        <ele>2.9</ele>
      </trkpt>
      <trkpt lat="63.424976" lon="10.395983">
        <ele>2.9</ele>
      </trkpt>
      <trkpt lat="63.424977" lon="10.396153">
        <ele>3</ele>
      </trkpt>
    </trkseg>
  </trk>
</gpx>