<?xml version="1.0" encoding="utf-8"?>
<gpx xmlns="http://www.topografix.com/GPX/1/1" xmlns:gpxx="http://www.garmin.com/xmlschemas/GpxExtensions/v3" xmlns:gpxtpx="http://www.garmin.com/xmlschemas/TrackPointExtension/v1" creator="doogal.co.uk" version="1.1" xmlns:xsi="http://www.w3.org/2001/XMLSchema-instance" xsi:schemaLocation="http://www.topografix.com/GPX/1/1 http://www.topografix.com/GPX/1/1/gpx.xsd http://www.garmin.com/xmlschemas/GpxExtensions/v3 http://www.garmin.com/xmlschemas/GpxExtensionsv3.xsd http://www.garmin.com/xmlschemas/TrackPointExtension/v1 http://www.garmin.com/xmlschemas/TrackPointExtensionv1.xsd">
  <metadata>
    <link href="https://www.doogal.co.uk">
      <text>doogal.co.uk</text>
    </link>
    <time>2026-04-17T11:41:36.3155468Z</time>
  </metadata>
  <trk>
    <name>Trondheim-stafetten E5 Kristiansten 1750m</name>
    <trkseg>
      <trkpt lat="63.428076" lon="10.411642">
        <ele>56</ele>
      </trkpt>
      <trkpt lat="63.428004" lon="10.411632">
        <ele>56.3</ele>
      </trkpt>
      <trkpt lat="63.427894" lon="10.411605">
        <ele>56.6</ele>
      </trkpt>
      <trkpt lat="63.427878" lon="10.411571">
        <ele>56.7</ele>
      </trkpt>
      <trkpt lat="63.427852" lon="10.411441">
        <ele>56.5</ele>
      </trkpt>
      <trkpt lat="63.427829" lon="10.411171">
        <ele>56.2</ele>
      </trkpt>
      <trkpt lat="63.427849" lon="10.410885">
        <ele>55.7</ele>
      </trkpt>
      <trkpt lat="63.427879" lon="10.410585">
        <ele>54.9</ele>
      </trkpt>
      <trkpt lat="63.427893" lon="10.410378">
        <ele>54.4</ele>
      </trkpt>
      <trkpt lat="63.427860" lon="10.410113">
        <ele>53.1</ele>
      </trkpt>
      <trkpt lat="63.427846" lon="10.410062">
        <ele>52.7</ele>
      </trkpt>
      <trkpt lat="63.427743" lon="10.409847">
        <ele>50.9</ele>
      </trkpt>
      <trkpt lat="63.427671" lon="10.409750">
        <ele>50.8</ele>
      </trkpt>
      <trkpt lat="63.427580" lon="10.409677">
        <ele>50.7</ele>
      </trkpt>
      <trkpt lat="63.427516" lon="10.409666">
        <ele>50.6</ele>
      </trkpt>
      <trkpt lat="63.427400" lon="10.409667">
        <ele>50.6</ele>
      </trkpt>
      <trkpt lat="63.427370" lon="10.409671">
        <ele>50.7</ele>
      </trkpt>
      <trkpt lat="63.427175" lon="10.409651">
        <ele>50.9</ele>
      </trkpt>
      <trkpt lat="63.427026" lon="10.409619">
        <ele>50.8</ele>
      </trkpt>
      <trkpt lat="63.426875" lon="10.409640">
        <ele>50.6</ele>
      </trkpt>
      <trkpt lat="63.426811" lon="10.409658">
        <ele>50.5</ele>
      </trkpt>
      <trkpt lat="63.426673" lon="10.409733">
        <ele>50.4</ele>
      </trkpt>
      <trkpt lat="63.426549" lon="10.409867">
        <ele>50.3</ele>
      </trkpt>
      <trkpt lat="63.426377" lon="10.410065">
        <ele>50.1</ele>
      </trkpt>
      <trkpt lat="63.426349" lon="10.410086">
        <ele>50.1</ele>
      </trkpt>
      <trkpt lat="63.426176" lon="10.410307">
        <ele>51.4</ele>
      </trkpt>
      <trkpt lat="63.426162" lon="10.410337">
        <ele>51.5</ele>
      </trkpt>
      <trkpt lat="63.426150" lon="10.410373">
        <ele>51.7</ele>
      </trkpt>
      <trkpt lat="63.426077" lon="10.410628">
        <ele>52.6</ele>
      </trkpt>
      <trkpt lat="63.425975" lon="10.410961">
        <ele>53.7</ele>
      </trkpt>
      <trkpt lat="63.425875" lon="10.411341">
        <ele>54.3</ele>
      </trkpt>
      <trkpt lat="63.425858" lon="10.411395">
        <ele>54.4</ele>
      </trkpt>
      <trkpt lat="63.425737" lon="10.411720">
        <ele>54.5</ele>
      </trkpt>
      <trkpt lat="63.425698" lon="10.411809">
        <ele>54.5</ele>
      </trkpt>
      <trkpt lat="63.425553" lon="10.412016">
        <ele>54.6</ele>
      </trkpt>
      <trkpt lat="63.425531" lon="10.412055">
        <ele>54.6</ele>
      </trkpt>
      <trkpt lat="63.425357" lon="10.412221">
        <ele>53.3</ele>
      </trkpt>
      <trkpt lat="63.425327" lon="10.412231">
        <ele>53.1</ele>
      </trkpt>
      <trkpt lat="63.425146" lon="10.412303">
        <ele>51.7</ele>
      </trkpt>
      <trkpt lat="63.425088" lon="10.412328">
        <ele>51.3</ele>
      </trkpt>
      <trkpt lat="63.424921" lon="10.412528">
        <ele>50.4</ele>
      </trkpt>
      <trkpt lat="63.424898" lon="10.412566">
        <ele>50.3</ele>
      </trkpt>
      <trkpt lat="63.424746" lon="10.412788">
        <ele>50.1</ele>
      </trkpt>
      <trkpt lat="63.424668" lon="10.412850">
        <ele>50.1</ele>
      </trkpt>
      <trkpt lat="63.424585" lon="10.412887">
        <ele>49.9</ele>
      </trkpt>
      <trkpt lat="63.424526" lon="10.412815">
        <ele>49.4</ele>
      </trkpt>
      <trkpt lat="63.424398" lon="10.412456">
        <ele>47.8</ele>
      </trkpt>
      <trkpt lat="63.424241" lon="10.412168">
        <ele>45.7</ele>
      </trkpt>
      <trkpt lat="63.424218" lon="10.412124">
        <ele>45.4</ele>
      </trkpt>
      <trkpt lat="63.424048" lon="10.411968">
        <ele>44.2</ele>
      </trkpt>
      <trkpt lat="63.423884" lon="10.411863">
        <ele>43.9</ele>
      </trkpt>
      <trkpt lat="63.423693" lon="10.411970">
        <ele>44.7</ele>
      </trkpt>
      <trkpt lat="63.423530" lon="10.412105">
        <ele>45.3</ele>
      </trkpt>
      <trkpt lat="63.423425" lon="10.412192">
        <ele>45.7</ele>
      </trkpt>
      <trkpt lat="63.423245" lon="10.412304">
        <ele>46.1</ele>
      </trkpt>
      <trkpt lat="63.423114" lon="10.412210">
        <ele>46.5</ele>
      </trkpt>
      <trkpt lat="63.422943" lon="10.412172">
        <ele>46.8</ele>
      </trkpt>
      <trkpt lat="63.422845" lon="10.411925">
        <ele>46.8</ele>
      </trkpt>
      <trkpt lat="63.422728" lon="10.411614">
        <ele>46.8</ele>
      </trkpt>
      <trkpt lat="63.422690" lon="10.411497">
        <ele>46.8</ele>
      </trkpt>
      <trkpt lat="63.422580" lon="10.411170">
        <ele>46.8</ele>
      </trkpt>
      <trkpt lat="63.422545" lon="10.411069">
        <ele>46.7</ele>
      </trkpt>
      <trkpt lat="63.422431" lon="10.410712">
        <ele>46.7</ele>
      </trkpt>
      <trkpt lat="63.422406" lon="10.410619">
        <ele>46.7</ele>
      </trkpt>
      <trkpt lat="63.422283" lon="10.410336">
        <ele>46.7</ele>
      </trkpt>
      <trkpt lat="63.422177" lon="10.409984">
        <ele>46.7</ele>
      </trkpt>
      <trkpt lat="63.422083" lon="10.409772">
        <ele>46.7</ele>
      </trkpt>
      <trkpt lat="63.421944" lon="10.409434">
        <ele>46.7</ele>
      </trkpt>
      <trkpt lat="63.421904" lon="10.409316">
        <ele>46.7</ele>
      </trkpt>
      <trkpt lat="63.421769" lon="10.409031">
        <ele>46.7</ele>
      </trkpt>
      <trkpt lat="63.421751" lon="10.408997">
        <ele>46.7</ele>
      </trkpt>
      <trkpt lat="63.421679" lon="10.408804">
        <ele>46.7</ele>
      </trkpt>
      <trkpt lat="63.421601" lon="10.408590">
        <ele>46.7</ele>
      </trkpt>
      <trkpt lat="63.421481" lon="10.408269">
        <ele>46.8</ele>
      </trkpt>
      <trkpt lat="63.421466" lon="10.408231">
        <ele>46.8</ele>
      </trkpt>
      <trkpt lat="63.421377" lon="10.407946">
        <ele>46.7</ele>
      </trkpt>
      <trkpt lat="63.421249" lon="10.407584">
        <ele>46.6</ele>
      </trkpt>
      <trkpt lat="63.421141" lon="10.407245">
        <ele>46.3</ele>
      </trkpt>
      <trkpt lat="63.421086" lon="10.407084">
        <ele>46.1</ele>
      </trkpt>
      <trkpt lat="63.420951" lon="10.406750">
        <ele>45.8</ele>
      </trkpt>
      <trkpt lat="63.420871" lon="10.406543">
        <ele>45.6</ele>
      </trkpt>
      <trkpt lat="63.420751" lon="10.406199">
        <ele>45.2</ele>
      </trkpt>
      <trkpt lat="63.420734" lon="10.406148">
        <ele>45.2</ele>
      </trkpt>
      <trkpt lat="63.420615" lon="10.405774">
        <ele>45</ele>
      </trkpt>
      <trkpt lat="63.420540" lon="10.405536">
        <ele>44.9</ele>
      </trkpt>
      <trkpt lat="63.420430" lon="10.405206">
        <ele>44.9</ele>
      </trkpt>
      <trkpt lat="63.420382" lon="10.405063">
        <ele>45</ele>
      </trkpt>
      <trkpt lat="63.420267" lon="10.404702">
        <ele>45</ele>
      </trkpt>
      <trkpt lat="63.420242" lon="10.404605">
        <ele>45.1</ele>
      </trkpt>
      <trkpt lat="63.420110" lon="10.404242">
        <ele>45.5</ele>
      </trkpt>
      <trkpt lat="63.420072" lon="10.404139">
        <ele>45.6</ele>
      </trkpt>
      <trkpt lat="63.419957" lon="10.403795">
        <ele>46.1</ele>
      </trkpt>
      <trkpt lat="63.419833" lon="10.403444">
        <ele>46.5</ele>
      </trkpt>
      <trkpt lat="63.419706" lon="10.403077">
        <ele>46.6</ele>
      </trkpt>
      <trkpt lat="63.419691" lon="10.403018">
        <ele>46.5</ele>
      </trkpt>
      <trkpt lat="63.419610" lon="10.402591">
        <ele>46.6</ele>
      </trkpt>
      <trkpt lat="63.419579" lon="10.402422">
        <ele>46.6</ele>
      </trkpt>
      <trkpt lat="63.419502" lon="10.401997">
        <ele>46.5</ele>
      </trkpt>
      <trkpt lat="63.419450" lon="10.401814">
        <ele>46.5</ele>
      </trkpt>
      <trkpt lat="63.419416" lon="10.401575">
        <ele>46.5</ele>
      </trkpt>
      <trkpt lat="63.419360" lon="10.401264">
        <ele>46.5</ele>
      </trkpt>
      <trkpt lat="63.419322" lon="10.400853">
        <ele>46.1</ele>
      </trkpt>
      <trkpt lat="63.419313" lon="10.400721">
        <ele>46</ele>
      </trkpt>
      <trkpt lat="63.419290" lon="10.400590">
        <ele>45.9</ele>
      </trkpt>
      <trkpt lat="63.419235" lon="10.400185">
        <ele>45.7</ele>
      </trkpt>
      <trkpt lat="63.419189" lon="10.399729">
        <ele>45.5</ele>
      </trkpt>
      <trkpt lat="63.419178" lon="10.399589">
        <ele>45.5</ele>
      </trkpt>
      <trkpt lat="63.419143" lon="10.399259">
        <ele>45.3</ele>
      </trkpt>
      <trkpt lat="63.419181" lon="10.399079">
        <ele>45.1</ele>
      </trkpt>
      <trkpt lat="63.419212" lon="10.399104">
        <ele>44.8</ele>
      </trkpt>
      <trkpt lat="63.419326" lon="10.399182">
        <ele>43.6</ele>
      </trkpt>
      <trkpt lat="63.419460" lon="10.399277">
        <ele>42.4</ele>
      </trkpt>
      <trkpt lat="63.419637" lon="10.399363">
        <ele>41.1</ele>
      </trkpt>
      <trkpt lat="63.419695" lon="10.399423">
        <ele>40.6</ele>
      </trkpt>
      <trkpt lat="63.419879" lon="10.399631">
        <ele>39.5</ele>
      </trkpt>
      <trkpt lat="63.419934" lon="10.399735">
        <ele>39.4</ele>
      </trkpt>
      <trkpt lat="63.420048" lon="10.400097">
        <ele>39.4</ele>
      </trkpt>
      <trkpt lat="63.420060" lon="10.400162">
        <ele>39.4</ele>
      </trkpt>
      <trkpt lat="63.420075" lon="10.400217">
        <ele>39.4</ele>
      </trkpt>
      <trkpt lat="63.420166" lon="10.400598">
        <ele>39.7</ele>
      </trkpt>
      <trkpt lat="63.420280" lon="10.400828">
        <ele>39.1</ele>
      </trkpt>
      <trkpt lat="63.420400" lon="10.400675">
        <ele>37.5</ele>
      </trkpt>
      <trkpt lat="63.420560" lon="10.400420">
        <ele>35</ele>
      </trkpt>
    </trkseg>
  </trk>
</gpx>