<?xml version="1.0" encoding="utf-8"?>
<gpx xmlns="http://www.topografix.com/GPX/1/1" xmlns:gpxx="http://www.garmin.com/xmlschemas/GpxExtensions/v3" xmlns:gpxtpx="http://www.garmin.com/xmlschemas/TrackPointExtension/v1" creator="doogal.co.uk" version="1.1" xmlns:xsi="http://www.w3.org/2001/XMLSchema-instance" xsi:schemaLocation="http://www.topografix.com/GPX/1/1 http://www.topografix.com/GPX/1/1/gpx.xsd http://www.garmin.com/xmlschemas/GpxExtensions/v3 http://www.garmin.com/xmlschemas/GpxExtensionsv3.xsd http://www.garmin.com/xmlschemas/TrackPointExtension/v1 http://www.garmin.com/xmlschemas/TrackPointExtensionv1.xsd">
  <metadata>
    <link href="https://www.doogal.co.uk">
      <text>doogal.co.uk</text>
    </link>
    <time>2026-03-22T15:47:22.4954170Z</time>
  </metadata>
  <trk>
    <name>Trondheim-stafetten E3 Lade 1000m</name>
    <trkseg>
      <trkpt lat="63.442996" lon="10.440248">
        <ele>13.1</ele>
      </trkpt>
      <trkpt lat="63.442943" lon="10.440596">
        <ele>13.3</ele>
      </trkpt>
      <trkpt lat="63.442936" lon="10.441061">
        <ele>13.5</ele>
      </trkpt>
      <trkpt lat="63.442936" lon="10.441137">
        <ele>13.5</ele>
      </trkpt>
      <trkpt lat="63.442947" lon="10.441612">
        <ele>13.3</ele>
      </trkpt>
      <trkpt lat="63.442955" lon="10.441972">
        <ele>12.9</ele>
      </trkpt>
      <trkpt lat="63.442951" lon="10.442441">
        <ele>12.7</ele>
      </trkpt>
      <trkpt lat="63.442922" lon="10.442697">
        <ele>12.8</ele>
      </trkpt>
      <trkpt lat="63.442848" lon="10.443072">
        <ele>13.4</ele>
      </trkpt>
      <trkpt lat="63.442826" lon="10.443168">
        <ele>13.7</ele>
      </trkpt>
      <trkpt lat="63.442802" lon="10.443471">
        <ele>15.2</ele>
      </trkpt>
      <trkpt lat="63.442767" lon="10.443739">
        <ele>16.7</ele>
      </trkpt>
      <trkpt lat="63.442761" lon="10.443778">
        <ele>16.9</ele>
      </trkpt>
      <trkpt lat="63.442728" lon="10.443946">
        <ele>17.9</ele>
      </trkpt>
      <trkpt lat="63.442706" lon="10.444067">
        <ele>18.7</ele>
      </trkpt>
      <trkpt lat="63.442645" lon="10.444418">
        <ele>20.3</ele>
      </trkpt>
      <trkpt lat="63.442623" lon="10.444773">
        <ele>21.5</ele>
      </trkpt>
      <trkpt lat="63.442591" lon="10.445112">
        <ele>22.8</ele>
      </trkpt>
      <trkpt lat="63.442584" lon="10.445461">
        <ele>24.4</ele>
      </trkpt>
      <trkpt lat="63.442582" lon="10.445514">
        <ele>24.4</ele>
      </trkpt>
      <trkpt lat="63.442517" lon="10.445865">
        <ele>24.4</ele>
      </trkpt>
      <trkpt lat="63.442411" lon="10.446252">
        <ele>24.3</ele>
      </trkpt>
      <trkpt lat="63.442395" lon="10.446305">
        <ele>24.3</ele>
      </trkpt>
      <trkpt lat="63.442313" lon="10.446708">
        <ele>24.2</ele>
      </trkpt>
      <trkpt lat="63.442301" lon="10.446769">
        <ele>24.2</ele>
      </trkpt>
      <trkpt lat="63.442215" lon="10.447153">
        <ele>24.1</ele>
      </trkpt>
      <trkpt lat="63.442151" lon="10.447418">
        <ele>24.1</ele>
      </trkpt>
      <trkpt lat="63.442098" lon="10.447620">
        <ele>24.2</ele>
      </trkpt>
      <trkpt lat="63.441995" lon="10.448008">
        <ele>24.5</ele>
      </trkpt>
      <trkpt lat="63.441961" lon="10.448135">
        <ele>24.6</ele>
      </trkpt>
      <trkpt lat="63.441877" lon="10.448495">
        <ele>24.9</ele>
      </trkpt>
      <trkpt lat="63.441806" lon="10.448627">
        <ele>25.1</ele>
      </trkpt>
      <trkpt lat="63.441729" lon="10.448560">
        <ele>25.6</ele>
      </trkpt>
      <trkpt lat="63.441691" lon="10.448509">
        <ele>25.8</ele>
      </trkpt>
      <trkpt lat="63.441517" lon="10.448317">
        <ele>26.9</ele>
      </trkpt>
      <trkpt lat="63.441463" lon="10.448290">
        <ele>27.2</ele>
      </trkpt>
      <trkpt lat="63.441284" lon="10.448252">
        <ele>28</ele>
      </trkpt>
      <trkpt lat="63.441261" lon="10.448240">
        <ele>28</ele>
      </trkpt>
      <trkpt lat="63.441112" lon="10.448199">
        <ele>28.7</ele>
      </trkpt>
      <trkpt lat="63.441063" lon="10.448169">
        <ele>29</ele>
      </trkpt>
      <trkpt lat="63.440870" lon="10.448065">
        <ele>30.1</ele>
      </trkpt>
      <trkpt lat="63.440821" lon="10.448037">
        <ele>30.4</ele>
      </trkpt>
      <trkpt lat="63.440625" lon="10.447924">
        <ele>31.6</ele>
      </trkpt>
      <trkpt lat="63.440554" lon="10.447876">
        <ele>31.9</ele>
      </trkpt>
      <trkpt lat="63.440373" lon="10.447796">
        <ele>32.2</ele>
      </trkpt>
      <trkpt lat="63.440294" lon="10.447707">
        <ele>31.9</ele>
      </trkpt>
      <trkpt lat="63.440188" lon="10.447334">
        <ele>31.4</ele>
      </trkpt>
      <trkpt lat="63.440214" lon="10.446894">
        <ele>30.5</ele>
      </trkpt>
      <trkpt lat="63.440301" lon="10.446853">
        <ele>30</ele>
      </trkpt>
      <trkpt lat="63.440372" lon="10.446983">
        <ele>29.4</ele>
      </trkpt>
      <trkpt lat="63.440388" lon="10.447045">
        <ele>29.2</ele>
      </trkpt>
      <trkpt lat="63.440392" lon="10.447125">
        <ele>29</ele>
      </trkpt>
      <trkpt lat="63.440377" lon="10.447308">
        <ele>28.6</ele>
      </trkpt>
      <trkpt lat="63.440355" lon="10.447508">
        <ele>28.2</ele>
      </trkpt>
      <trkpt lat="63.440342" lon="10.447601">
        <ele>27.9</ele>
      </trkpt>
      <trkpt lat="63.440308" lon="10.447779">
        <ele>27.5</ele>
      </trkpt>
      <trkpt lat="63.440282" lon="10.447840">
        <ele>27.4</ele>
      </trkpt>
      <trkpt lat="63.440246" lon="10.447886">
        <ele>27.2</ele>
      </trkpt>
      <trkpt lat="63.440175" lon="10.447914">
        <ele>27</ele>
      </trkpt>
      <trkpt lat="63.439965" lon="10.447931">
        <ele>26.9</ele>
      </trkpt>
      <trkpt lat="63.439931" lon="10.447918">
        <ele>27</ele>
      </trkpt>
      <trkpt lat="63.439899" lon="10.447901">
        <ele>27.1</ele>
      </trkpt>
      <trkpt lat="63.439788" lon="10.447842">
        <ele>27.6</ele>
      </trkpt>
      <trkpt lat="63.439681" lon="10.447825">
        <ele>28.3</ele>
      </trkpt>
      <trkpt lat="63.439663" lon="10.447866">
        <ele>28.4</ele>
      </trkpt>
      <trkpt lat="63.439603" lon="10.448227">
        <ele>28.7</ele>
      </trkpt>
      <trkpt lat="63.439523" lon="10.448645">
        <ele>29.3</ele>
      </trkpt>
      <trkpt lat="63.439490" lon="10.448783">
        <ele>29.5</ele>
      </trkpt>
      <trkpt lat="63.439425" lon="10.449143">
        <ele>29.9</ele>
      </trkpt>
      <trkpt lat="63.439405" lon="10.449531">
        <ele>29.9</ele>
      </trkpt>
      <trkpt lat="63.439398" lon="10.449613">
        <ele>29.9</ele>
      </trkpt>
      <trkpt lat="63.439384" lon="10.449908">
        <ele>30.1</ele>
      </trkpt>
      <trkpt lat="63.439313" lon="10.450323">
        <ele>30.3</ele>
      </trkpt>
      <trkpt lat="63.439291" lon="10.450348">
        <ele>30.4</ele>
      </trkpt>
      <trkpt lat="63.439240" lon="10.450343">
        <ele>30.4</ele>
      </trkpt>
      <trkpt lat="63.439053" lon="10.450209">
        <ele>30.8</ele>
      </trkpt>
      <trkpt lat="63.438965" lon="10.450119">
        <ele>30.8</ele>
      </trkpt>
      <trkpt lat="63.438789" lon="10.449977">
        <ele>30.9</ele>
      </trkpt>
      <trkpt lat="63.438741" lon="10.449894">
        <ele>30.8</ele>
      </trkpt>
      <trkpt lat="63.438659" lon="10.449657">
        <ele>30.7</ele>
      </trkpt>
      <trkpt lat="63.438644" lon="10.449598">
        <ele>30.7</ele>
      </trkpt>
      <trkpt lat="63.438588" lon="10.449212">
        <ele>30.5</ele>
      </trkpt>
    </trkseg>
  </trk>
</gpx>