<?xml version="1.0" encoding="utf-8"?>
<gpx xmlns="http://www.topografix.com/GPX/1/1" xmlns:gpxx="http://www.garmin.com/xmlschemas/GpxExtensions/v3" xmlns:gpxtpx="http://www.garmin.com/xmlschemas/TrackPointExtension/v1" creator="doogal.co.uk" version="1.1" xmlns:xsi="http://www.w3.org/2001/XMLSchema-instance" xsi:schemaLocation="http://www.topografix.com/GPX/1/1 http://www.topografix.com/GPX/1/1/gpx.xsd http://www.garmin.com/xmlschemas/GpxExtensions/v3 http://www.garmin.com/xmlschemas/GpxExtensionsv3.xsd http://www.garmin.com/xmlschemas/TrackPointExtension/v1 http://www.garmin.com/xmlschemas/TrackPointExtensionv1.xsd">
  <metadata>
    <link href="https://www.doogal.co.uk">
      <text>doogal.co.uk</text>
    </link>
    <time>2026-03-19T10:31:43.3134853Z</time>
  </metadata>
  <trk>
    <name>Trondheim-stafetten (2026) E10 Nidaros 2400m</name>
    <trkseg>
      <trkpt lat="63.425023" lon="10.397218">
        <ele>3.1</ele>
      </trkpt>
      <trkpt lat="63.425058" lon="10.397623">
        <ele>3.1</ele>
      </trkpt>
      <trkpt lat="63.425101" lon="10.398011">
        <ele>3.1</ele>
      </trkpt>
      <trkpt lat="63.425192" lon="10.398436">
        <ele>3.4</ele>
      </trkpt>
      <trkpt lat="63.425238" lon="10.398549">
        <ele>3.5</ele>
      </trkpt>
      <trkpt lat="63.425301" lon="10.398734">
        <ele>3.7</ele>
      </trkpt>
      <trkpt lat="63.425402" lon="10.399017">
        <ele>4.1</ele>
      </trkpt>
      <trkpt lat="63.425518" lon="10.399285">
        <ele>4.5</ele>
      </trkpt>
      <trkpt lat="63.425559" lon="10.399373">
        <ele>4.6</ele>
      </trkpt>
      <trkpt lat="63.425620" lon="10.399501">
        <ele>4.8</ele>
      </trkpt>
      <trkpt lat="63.425709" lon="10.399628">
        <ele>5</ele>
      </trkpt>
      <trkpt lat="63.425836" lon="10.399751">
        <ele>5.2</ele>
      </trkpt>
      <trkpt lat="63.425916" lon="10.399833">
        <ele>5.2</ele>
      </trkpt>
      <trkpt lat="63.426084" lon="10.400021">
        <ele>5.3</ele>
      </trkpt>
      <trkpt lat="63.426213" lon="10.400137">
        <ele>5.4</ele>
      </trkpt>
      <trkpt lat="63.426328" lon="10.400283">
        <ele>5.6</ele>
      </trkpt>
      <trkpt lat="63.426446" lon="10.400402">
        <ele>6</ele>
      </trkpt>
      <trkpt lat="63.426627" lon="10.400456">
        <ele>6.5</ele>
      </trkpt>
      <trkpt lat="63.426659" lon="10.400454">
        <ele>6.5</ele>
      </trkpt>
      <trkpt lat="63.426838" lon="10.400422">
        <ele>7</ele>
      </trkpt>
      <trkpt lat="63.426929" lon="10.400359">
        <ele>7.2</ele>
      </trkpt>
      <trkpt lat="63.427082" lon="10.400124">
        <ele>7.8</ele>
      </trkpt>
      <trkpt lat="63.427107" lon="10.400094">
        <ele>7.9</ele>
      </trkpt>
      <trkpt lat="63.427294" lon="10.399947">
        <ele>8.6</ele>
      </trkpt>
      <trkpt lat="63.427492" lon="10.400007">
        <ele>9</ele>
      </trkpt>
      <trkpt lat="63.427578" lon="10.400019">
        <ele>9.2</ele>
      </trkpt>
      <trkpt lat="63.427775" lon="10.400010">
        <ele>9.6</ele>
      </trkpt>
      <trkpt lat="63.427824" lon="10.399996">
        <ele>9.7</ele>
      </trkpt>
      <trkpt lat="63.427987" lon="10.400001">
        <ele>9.7</ele>
      </trkpt>
      <trkpt lat="63.428186" lon="10.400064">
        <ele>9.3</ele>
      </trkpt>
      <trkpt lat="63.428305" lon="10.400112">
        <ele>9</ele>
      </trkpt>
      <trkpt lat="63.428345" lon="10.400222">
        <ele>8.7</ele>
      </trkpt>
      <trkpt lat="63.428338" lon="10.400299">
        <ele>8.6</ele>
      </trkpt>
      <trkpt lat="63.428296" lon="10.400713">
        <ele>8.4</ele>
      </trkpt>
      <trkpt lat="63.428263" lon="10.400999">
        <ele>8.1</ele>
      </trkpt>
      <trkpt lat="63.428224" lon="10.401359">
        <ele>7.8</ele>
      </trkpt>
      <trkpt lat="63.428188" lon="10.401669">
        <ele>7.4</ele>
      </trkpt>
      <trkpt lat="63.428144" lon="10.402077">
        <ele>6.4</ele>
      </trkpt>
      <trkpt lat="63.428112" lon="10.402415">
        <ele>5.3</ele>
      </trkpt>
      <trkpt lat="63.428082" lon="10.402824">
        <ele>4.9</ele>
      </trkpt>
      <trkpt lat="63.428068" lon="10.402898">
        <ele>4.8</ele>
      </trkpt>
      <trkpt lat="63.427970" lon="10.403049">
        <ele>5</ele>
      </trkpt>
      <trkpt lat="63.427764" lon="10.403091">
        <ele>5.4</ele>
      </trkpt>
      <trkpt lat="63.427735" lon="10.403098">
        <ele>5.5</ele>
      </trkpt>
      <trkpt lat="63.427534" lon="10.403157">
        <ele>6</ele>
      </trkpt>
      <trkpt lat="63.427448" lon="10.403185">
        <ele>6.2</ele>
      </trkpt>
      <trkpt lat="63.427255" lon="10.403162">
        <ele>6.6</ele>
      </trkpt>
      <trkpt lat="63.427187" lon="10.403139">
        <ele>6.7</ele>
      </trkpt>
      <trkpt lat="63.426991" lon="10.403176">
        <ele>7</ele>
      </trkpt>
      <trkpt lat="63.426849" lon="10.403237">
        <ele>7.3</ele>
      </trkpt>
      <trkpt lat="63.426826" lon="10.403250">
        <ele>7.3</ele>
      </trkpt>
      <trkpt lat="63.426706" lon="10.403336">
        <ele>7.5</ele>
      </trkpt>
      <trkpt lat="63.426610" lon="10.403418">
        <ele>7.7</ele>
      </trkpt>
      <trkpt lat="63.426585" lon="10.403436">
        <ele>7.7</ele>
      </trkpt>
      <trkpt lat="63.426413" lon="10.403558">
        <ele>8.1</ele>
      </trkpt>
      <trkpt lat="63.426360" lon="10.403597">
        <ele>8.2</ele>
      </trkpt>
      <trkpt lat="63.426199" lon="10.403676">
        <ele>8.1</ele>
      </trkpt>
      <trkpt lat="63.426110" lon="10.403708">
        <ele>8</ele>
      </trkpt>
      <trkpt lat="63.425907" lon="10.403719">
        <ele>7.7</ele>
      </trkpt>
      <trkpt lat="63.425877" lon="10.403711">
        <ele>7.7</ele>
      </trkpt>
      <trkpt lat="63.425756" lon="10.403649">
        <ele>7.5</ele>
      </trkpt>
      <trkpt lat="63.425636" lon="10.403603">
        <ele>7.2</ele>
      </trkpt>
      <trkpt lat="63.425575" lon="10.403558">
        <ele>7.1</ele>
      </trkpt>
      <trkpt lat="63.425369" lon="10.403436">
        <ele>6.9</ele>
      </trkpt>
      <trkpt lat="63.425204" lon="10.403282">
        <ele>6.8</ele>
      </trkpt>
      <trkpt lat="63.425114" lon="10.403160">
        <ele>6.7</ele>
      </trkpt>
      <trkpt lat="63.424977" lon="10.402960">
        <ele>6.8</ele>
      </trkpt>
      <trkpt lat="63.424897" lon="10.402845">
        <ele>6.8</ele>
      </trkpt>
      <trkpt lat="63.424808" lon="10.402746">
        <ele>6.9</ele>
      </trkpt>
      <trkpt lat="63.424661" lon="10.402584">
        <ele>7</ele>
      </trkpt>
      <trkpt lat="63.424557" lon="10.402424">
        <ele>7.2</ele>
      </trkpt>
      <trkpt lat="63.424403" lon="10.402196">
        <ele>7.7</ele>
      </trkpt>
      <trkpt lat="63.424355" lon="10.402124">
        <ele>7.9</ele>
      </trkpt>
      <trkpt lat="63.424181" lon="10.401873">
        <ele>8.4</ele>
      </trkpt>
      <trkpt lat="63.424131" lon="10.401801">
        <ele>8.5</ele>
      </trkpt>
      <trkpt lat="63.424105" lon="10.401768">
        <ele>8.7</ele>
      </trkpt>
      <trkpt lat="63.424055" lon="10.401699">
        <ele>9</ele>
      </trkpt>
      <trkpt lat="63.423900" lon="10.401484">
        <ele>10.3</ele>
      </trkpt>
      <trkpt lat="63.423880" lon="10.401452">
        <ele>10.5</ele>
      </trkpt>
      <trkpt lat="63.423708" lon="10.401216">
        <ele>12</ele>
      </trkpt>
      <trkpt lat="63.423671" lon="10.401148">
        <ele>12.5</ele>
      </trkpt>
      <trkpt lat="63.423594" lon="10.401034">
        <ele>13.6</ele>
      </trkpt>
      <trkpt lat="63.423520" lon="10.400821">
        <ele>14.1</ele>
      </trkpt>
      <trkpt lat="63.423509" lon="10.400544">
        <ele>13.4</ele>
      </trkpt>
      <trkpt lat="63.423496" lon="10.400486">
        <ele>13.2</ele>
      </trkpt>
      <trkpt lat="63.423391" lon="10.400137">
        <ele>12.1</ele>
      </trkpt>
      <trkpt lat="63.423379" lon="10.400075">
        <ele>11.9</ele>
      </trkpt>
      <trkpt lat="63.423314" lon="10.399692">
        <ele>11</ele>
      </trkpt>
      <trkpt lat="63.423304" lon="10.399627">
        <ele>10.8</ele>
      </trkpt>
      <trkpt lat="63.423248" lon="10.399176">
        <ele>9.9</ele>
      </trkpt>
      <trkpt lat="63.423228" lon="10.399031">
        <ele>9.7</ele>
      </trkpt>
      <trkpt lat="63.423171" lon="10.398587">
        <ele>9.2</ele>
      </trkpt>
      <trkpt lat="63.423153" lon="10.398453">
        <ele>8.9</ele>
      </trkpt>
      <trkpt lat="63.423079" lon="10.398012">
        <ele>7.4</ele>
      </trkpt>
      <trkpt lat="63.423049" lon="10.397859">
        <ele>6.9</ele>
      </trkpt>
      <trkpt lat="63.423031" lon="10.397783">
        <ele>6.6</ele>
      </trkpt>
      <trkpt lat="63.423016" lon="10.397712">
        <ele>6.4</ele>
      </trkpt>
      <trkpt lat="63.423005" lon="10.397644">
        <ele>6.2</ele>
      </trkpt>
      <trkpt lat="63.423001" lon="10.397309">
        <ele>5.3</ele>
      </trkpt>
      <trkpt lat="63.423032" lon="10.397189">
        <ele>4.9</ele>
      </trkpt>
      <trkpt lat="63.423084" lon="10.397105">
        <ele>4.6</ele>
      </trkpt>
      <trkpt lat="63.423184" lon="10.396866">
        <ele>4.1</ele>
      </trkpt>
      <trkpt lat="63.423177" lon="10.396496">
        <ele>3.9</ele>
      </trkpt>
      <trkpt lat="63.423175" lon="10.396293">
        <ele>3.9</ele>
      </trkpt>
      <trkpt lat="63.423174" lon="10.395979">
        <ele>3.8</ele>
      </trkpt>
      <trkpt lat="63.423184" lon="10.395552">
        <ele>3.8</ele>
      </trkpt>
      <trkpt lat="63.423188" lon="10.395339">
        <ele>3.7</ele>
      </trkpt>
      <trkpt lat="63.423191" lon="10.395242">
        <ele>3.7</ele>
      </trkpt>
      <trkpt lat="63.423211" lon="10.394803">
        <ele>3.5</ele>
      </trkpt>
      <trkpt lat="63.423207" lon="10.394382">
        <ele>3.4</ele>
      </trkpt>
      <trkpt lat="63.423191" lon="10.393968">
        <ele>3.4</ele>
      </trkpt>
      <trkpt lat="63.423197" lon="10.393857">
        <ele>3.6</ele>
      </trkpt>
      <trkpt lat="63.423245" lon="10.393562">
        <ele>4.1</ele>
      </trkpt>
      <trkpt lat="63.423275" lon="10.393405">
        <ele>4.7</ele>
      </trkpt>
      <trkpt lat="63.423319" lon="10.392985">
        <ele>6.4</ele>
      </trkpt>
      <trkpt lat="63.423342" lon="10.392687">
        <ele>7.4</ele>
      </trkpt>
      <trkpt lat="63.423353" lon="10.392587">
        <ele>7.6</ele>
      </trkpt>
      <trkpt lat="63.423356" lon="10.392539">
        <ele>7.6</ele>
      </trkpt>
      <trkpt lat="63.423404" lon="10.392141">
        <ele>8.1</ele>
      </trkpt>
      <trkpt lat="63.423413" lon="10.392043">
        <ele>8.2</ele>
      </trkpt>
      <trkpt lat="63.423445" lon="10.391708">
        <ele>8.6</ele>
      </trkpt>
      <trkpt lat="63.423487" lon="10.391372">
        <ele>9.1</ele>
      </trkpt>
      <trkpt lat="63.423515" lon="10.391126">
        <ele>9.4</ele>
      </trkpt>
      <trkpt lat="63.423537" lon="10.390938">
        <ele>9.6</ele>
      </trkpt>
      <trkpt lat="63.423564" lon="10.390571">
        <ele>9.6</ele>
      </trkpt>
      <trkpt lat="63.423586" lon="10.390401">
        <ele>9.6</ele>
      </trkpt>
      <trkpt lat="63.423618" lon="10.390160">
        <ele>9.4</ele>
      </trkpt>
      <trkpt lat="63.423633" lon="10.390036">
        <ele>9.4</ele>
      </trkpt>
      <trkpt lat="63.423642" lon="10.389976">
        <ele>9.3</ele>
      </trkpt>
      <trkpt lat="63.423712" lon="10.389555">
        <ele>9.1</ele>
      </trkpt>
      <trkpt lat="63.423722" lon="10.389490">
        <ele>9</ele>
      </trkpt>
      <trkpt lat="63.423748" lon="10.389364">
        <ele>9</ele>
      </trkpt>
      <trkpt lat="63.423812" lon="10.389027">
        <ele>9</ele>
      </trkpt>
      <trkpt lat="63.423871" lon="10.388642">
        <ele>8.8</ele>
      </trkpt>
      <trkpt lat="63.423879" lon="10.388569">
        <ele>8.7</ele>
      </trkpt>
      <trkpt lat="63.423972" lon="10.388153">
        <ele>8.4</ele>
      </trkpt>
      <trkpt lat="63.423987" lon="10.388094">
        <ele>8.3</ele>
      </trkpt>
      <trkpt lat="63.424055" lon="10.387742">
        <ele>7.9</ele>
      </trkpt>
      <trkpt lat="63.424069" lon="10.387686">
        <ele>7.8</ele>
      </trkpt>
      <trkpt lat="63.424110" lon="10.387506">
        <ele>7.6</ele>
      </trkpt>
      <trkpt lat="63.424193" lon="10.387134">
        <ele>7.1</ele>
      </trkpt>
      <trkpt lat="63.424248" lon="10.386949">
        <ele>6.9</ele>
      </trkpt>
      <trkpt lat="63.424367" lon="10.386593">
        <ele>6.6</ele>
      </trkpt>
      <trkpt lat="63.424499" lon="10.386244">
        <ele>6.2</ele>
      </trkpt>
      <trkpt lat="63.424571" lon="10.386068">
        <ele>6</ele>
      </trkpt>
      <trkpt lat="63.424639" lon="10.385893">
        <ele>5.8</ele>
      </trkpt>
      <trkpt lat="63.424661" lon="10.385837">
        <ele>5.7</ele>
      </trkpt>
      <trkpt lat="63.424683" lon="10.385781">
        <ele>5.6</ele>
      </trkpt>
      <trkpt lat="63.424791" lon="10.385553">
        <ele>5.3</ele>
      </trkpt>
      <trkpt lat="63.424891" lon="10.385340">
        <ele>5.1</ele>
      </trkpt>
      <trkpt lat="63.425027" lon="10.385075">
        <ele>4.9</ele>
      </trkpt>
      <trkpt lat="63.425056" lon="10.385025">
        <ele>4.9</ele>
      </trkpt>
      <trkpt lat="63.425217" lon="10.384724">
        <ele>4.9</ele>
      </trkpt>
      <trkpt lat="63.425302" lon="10.384585">
        <ele>4.9</ele>
      </trkpt>
      <trkpt lat="63.425464" lon="10.384319">
        <ele>5.1</ele>
      </trkpt>
      <trkpt lat="63.425560" lon="10.384140">
        <ele>5.2</ele>
      </trkpt>
      <trkpt lat="63.425706" lon="10.383829">
        <ele>5.3</ele>
      </trkpt>
      <trkpt lat="63.425782" lon="10.383712">
        <ele>5.3</ele>
      </trkpt>
      <trkpt lat="63.425926" lon="10.383464">
        <ele>5.3</ele>
      </trkpt>
      <trkpt lat="63.426082" lon="10.383221">
        <ele>5.3</ele>
      </trkpt>
      <trkpt lat="63.426109" lon="10.383182">
        <ele>5.2</ele>
      </trkpt>
      <trkpt lat="63.426264" lon="10.382911">
        <ele>5.1</ele>
      </trkpt>
      <trkpt lat="63.426400" lon="10.382669">
        <ele>5</ele>
      </trkpt>
      <trkpt lat="63.426554" lon="10.382377">
        <ele>5.1</ele>
      </trkpt>
      <trkpt lat="63.426705" lon="10.382053">
        <ele>4.9</ele>
      </trkpt>
      <trkpt lat="63.426797" lon="10.381831">
        <ele>4.7</ele>
      </trkpt>
      <trkpt lat="63.426894" lon="10.381576">
        <ele>4.4</ele>
      </trkpt>
      <trkpt lat="63.426939" lon="10.381442">
        <ele>4.3</ele>
      </trkpt>
      <trkpt lat="63.426989" lon="10.381316">
        <ele>4.2</ele>
      </trkpt>
      <trkpt lat="63.427067" lon="10.381130">
        <ele>4.1</ele>
      </trkpt>
      <trkpt lat="63.427116" lon="10.381007">
        <ele>4</ele>
      </trkpt>
      <trkpt lat="63.427268" lon="10.380670">
        <ele>3.9</ele>
      </trkpt>
      <trkpt lat="63.427315" lon="10.380547">
        <ele>3.8</ele>
      </trkpt>
      <trkpt lat="63.427455" lon="10.380199">
        <ele>3.6</ele>
      </trkpt>
      <trkpt lat="63.427543" lon="10.379943">
        <ele>3.5</ele>
      </trkpt>
    </trkseg>
  </trk>
</gpx>